{"type": "FeatureCollection", "_comment": "충청권 POI **수집** 폴리곤 (v2.3 1-3 '데이터 추출 범위 = 서비스 경계 + 시설 검색 여유(3km) + 경로 우회 여유'). 지원 폴리곤을 미터 좌표계에서 3000m 부풀린 것이다. **지원 판정에 쓰지 않는다** — region.supported는 api/app/region_data/chungcheong.geojson이 정한다. data/data/make_region_polygon.py --out-collection으로 다시 만든다.", "properties": {"version": "osm-2026-09-11", "derived_from": "..\\api\\app\\region_data\\chungcheong.geojson", "source": "OpenStreetMap admin_level=4 (Geofabrik south-korea)", "license": "ODbL 1.0 — © OpenStreetMap contributors", "margin_m": 3000.0, "simplify_slack_m": 150.0, "tolerance_deg": 0.0005, "projected_crs": "EPSG:5179", "bounds": [125.25223682260525, 35.94890162390116, 128.68840294772644, 37.28771661689742], "points": 697, "touching_sido": ["강원특별자치도", "경기도", "경상북도", "대전광역시", "세종특별자치시", "인천광역시", "전북특별자치도", "충청남도", "충청북도"]}, "features": [{"type": "Feature", "properties": {"name": "chungcheong-poi-collection"}, "geometry": {"type": "Polygon", "coordinates": [[[126.4634308513955, 37.09772080961423], [126.477542307699, 37.11354566154327], [126.4848213260795, 37.119574734071705], [126.49076675044141, 37.122527429065016], [126.49732082985861, 37.12448746209684], [126.5077304238897, 37.125410502929874], [126.51802244198875, 37.12385732480246], [126.53950162373141, 37.117875830681974], [126.54559428714832, 37.1156412735409], [126.55105264886089, 37.11252826557067], [126.55568161461566, 37.1086481184974], [126.56071781715913, 37.10169926349821], [126.56942550101851, 37.07870479425984], [126.57328440134442, 37.07888743562762], [126.59433614789918, 37.093489719763866], [126.6033996871828, 37.09725531598898], [126.61002839615477, 37.09854057165494], [126.61684179307102, 37.09878472823545], [126.62358735392372, 37.09797873304033], [126.63001507542744, 37.09615245448782], [126.73337500027206, 37.047315726221], [126.76252772007248, 37.037164935358774], [126.78093974475586, 37.026855728061136], [126.80875100138621, 37.012760975045175], [126.8418726689623, 36.99815024896556], [126.84778797533193, 36.994870618773184], [126.85512037755964, 36.988924931995044], [126.85980896912118, 36.98400960125498], [126.8721075204072, 36.96769164663292], [126.87604197257298, 36.96024070234748], [126.87713138008249, 36.95490680385737], [126.87636739734383, 36.94683779581019], [126.87227603168063, 36.93828179454845], [126.86614201093585, 36.93177177423028], [126.86718766299681, 36.92806721514328], [126.89381309841075, 36.93057062958033], [126.90466285771262, 36.934281645232076], [126.92490761759215, 36.94363316228682], [126.95740030564166, 36.95293829148463], [126.96550398341763, 36.95860782272983], [126.97549435828199, 36.962085114764896], [126.99448077654309, 36.96483536339861], [127.01874671421403, 36.963941931256], [127.03047527039112, 36.96121577694642], [127.03629446756567, 36.96190351537817], [127.04862843680408, 36.96723313385413], [127.06059575353434, 36.968930861035126], [127.06275564257795, 36.973147398213044], [127.06666969103618, 36.97794812656591], [127.08136992701841, 36.98900552724101], [127.08703702150055, 36.99428724299115], [127.0973858793478, 36.999872119428666], [127.10372184165519, 37.00168538524385], [127.11037125006442, 37.002504269453674], [127.12040634343505, 37.00181349647529], [127.13081659141547, 36.998404009500135], [127.13950878802504, 37.00028449565866], [127.14654731451725, 37.00046190673272], [127.16046948505209, 36.9994917110788], [127.17148581736838, 36.99749673080398], [127.17771691175801, 36.99504251326269], [127.18336788916213, 36.991546443480516], [127.19450996715028, 36.98879714347359], [127.2005807655788, 36.985683513333136], [127.20625100577158, 36.981102202993675], [127.21682719540908, 36.978557982801775], [127.22564341853672, 36.97389597178486], [127.23248661082731, 36.968401883962834], [127.23974090892547, 36.9586914826602], [127.24165649019733, 36.95461870772674], [127.24460858084926, 36.952290029622624], [127.24806977339111, 36.95151017493973], [127.25896263598068, 36.95145184040215], [127.26709806690042, 36.9495164272851], [127.27189745129401, 36.95355563283922], [127.28055593091635, 36.95795618097536], [127.29042340908416, 36.960179813736495], [127.29824276888567, 36.96026282723154], [127.31317178700914, 36.96484478855809], [127.31918887414788, 36.970283430875504], [127.33163543977109, 36.97832769718157], [127.34116383897268, 36.98138185308101], [127.34869619124947, 36.982131200977086], [127.34911908910325, 36.98837387809295], [127.35056676462656, 36.993562395126325], [127.35319516883327, 36.99844342072095], [127.35733658934545, 37.0035705892362], [127.3598773101882, 37.00967816266427], [127.36374008222772, 37.01483147876343], [127.37056211024353, 37.02069312509087], [127.37939082612648, 37.0252271388163], [127.39203912740159, 37.02858143072313], [127.40260275955804, 37.02913393433117], [127.40826867393636, 37.03141055711469], [127.41516803637177, 37.03293235561531], [127.42073060520154, 37.036599953181934], [127.42091772691394, 37.046958498549515], [127.42254780343346, 37.0520617081998], [127.42532619876694, 37.056835696657785], [127.43389292956734, 37.06641111114214], [127.4428853769304, 37.074716188922785], [127.44830670682305, 37.0783164843175], [127.46151510778553, 37.08331603813563], [127.46832593790673, 37.0849610831257], [127.47896490080619, 37.08531419989783], [127.49329603056067, 37.08337773823801], [127.50467359557608, 37.08842904058609], [127.51461655581411, 37.089887890194674], [127.5246691253398, 37.0890380988244], [127.53607527682722, 37.08486099794506], [127.54027092351555, 37.08418223493317], [127.54966289456306, 37.094208421183176], [127.55664390330504, 37.098801041381186], [127.56199781132129, 37.10690741103028], [127.56974491589676, 37.1128885706107], [127.57600872913946, 37.115714859087255], [127.58285604995794, 37.117470707499514], [127.59608815784117, 37.11797545403332], [127.59294666341424, 37.127800728899594], [127.59319284806531, 37.13534460471148], [127.59168445393739, 37.15501797015908], [127.59436072090719, 37.16515760060337], [127.59740637554977, 37.17031733665799], [127.6016801954819, 37.174885378419], [127.60700965502069, 37.178677107509564], [127.61317946582878, 37.18153925585738], [127.61994027811853, 37.18335611597116], [127.62701877691522, 37.18405423165575], [127.64947339889471, 37.18118544226403], [127.66234391790884, 37.1776590238331], [127.66947395212195, 37.17438122992184], [127.67456198204113, 37.18454243823674], [127.6837057496152, 37.19687822669866], [127.6914099507266, 37.20445164591427], [127.69657685029571, 37.20782350740965], [127.70205493690423, 37.22028997416372], [127.70714841016523, 37.22739552576214], [127.7116850819991, 37.231578339727264], [127.72406976898598, 37.23942701074157], [127.73465780803005, 37.24321200947111], [127.74124071184654, 37.244155562157275], [127.7479281915054, 37.24409540042419], [127.7544828560481, 37.24303366079616], [127.76067204506126, 37.241008032287375], [127.77186007264505, 37.23435846759612], [127.7764453582742, 37.229987173808986], [127.78105474529079, 37.22228368852541], [127.78243470119116, 37.21668613653534], [127.78240655178618, 37.211248535588496], [127.78779915389896, 37.18769825489664], [127.789322249951, 37.18398895274801], [127.79363977392443, 37.178368777775745], [127.79854331772076, 37.1759327805657], [127.81068407440024, 37.181245127606154], [127.82425114459002, 37.18410278762537], [127.83205132038265, 37.18438510722878], [127.84077766657109, 37.188310450911274], [127.84762164752063, 37.1898132541534], [127.85383872975025, 37.19018411935551], [127.86351984697997, 37.19310065417089], [127.87350495866714, 37.19368024731831], [127.88773121535182, 37.191199531157864], [127.89537689033634, 37.19441393999441], [127.89460057556671, 37.20325352421163], [127.88929596405775, 37.20986162676337], [127.88605755033488, 37.218363459128334], [127.88509438576054, 37.22412481516022], [127.88561850145788, 37.22992229686924], [127.8895800808107, 37.23949687395533], [127.89821943770434, 37.25007889173556], [127.91512833153662, 37.263069873532174], [127.92603837357275, 37.26819979185648], [127.93411242937069, 37.273238699043304], [127.9451718958783, 37.27739878242953], [127.95492639301261, 37.282569367834945], [127.97218006652774, 37.28705907823774], [127.97892987876476, 37.28771661689742], [127.99278648606092, 37.286880309889575], [128.01034272912534, 37.28279423796351], [128.0267040950111, 37.27735179028722], [128.0404368540522, 37.26912158358829], [128.04526342022433, 37.265493654630276], [128.0497684585453, 37.26057464742601], [128.05285545580014, 37.2550003112605], [128.05595081784236, 37.24605004362608], [128.062268980306, 37.24030551851964], [128.06953783093397, 37.231736089229365], [128.07301297076873, 37.22609511341909], [128.08034909086166, 37.22808024686304], [128.08250937299263, 37.23284743757372], [128.09514540169204, 37.25069113040191], [128.1017840798903, 37.25691854294695], [128.10733277879024, 37.26011180229131], [128.1168277176422, 37.26316911098971], [128.12701952859496, 37.263934585344586], [128.1421834233184, 37.26130409342315], [128.1533767466088, 37.2570332201415], [128.16212510482333, 37.261986075643286], [128.17411664958271, 37.2703199259801], [128.1851740777961, 37.275348234255226], [128.19516381478869, 37.2779612998931], [128.21272664457703, 37.277941667064724], [128.2231953673539, 37.27546860939883], [128.23707842589565, 37.26927178381438], [128.24220764939415, 37.26535744143135], [128.24867059587774, 37.258804624605176], [128.26105517461838, 37.25778410585367], [128.27069141027292, 37.254304695969694], [128.2762131350593, 37.250783568486504], [128.28274343384732, 37.24412591833909], [128.29064456617962, 37.24524744449113], [128.29948126414897, 37.24961154428543], [128.30946301568605, 37.2521342661979], [128.31955876129587, 37.25266844885516], [128.3294329779117, 37.250904639040435], [128.33549388717944, 37.24851543370341], [128.34460626717183, 37.24334802300946], [128.35038351322126, 37.241510959413404], [128.35611130506624, 37.23860418701348], [128.36315219154685, 37.23275171177256], [128.36783213657114, 37.22554480424453], [128.3694426461211, 37.22027587154079], [128.3694483592101, 37.21215529683099], [128.36852770534836, 37.207846179522974], [128.36607809483593, 37.20231733025477], [128.36511532826003, 37.19537369617824], [128.3609672570767, 37.18686303009336], [128.37297820907145, 37.18622349024628], [128.3821272962634, 37.18744395257658], [128.39025354615484, 37.18712309977605], [128.39989919046624, 37.18470332019372], [128.4148456010728, 37.17822486001732], [128.4200890246532, 37.1743009744377], [128.43133759863161, 37.16304096038949], [128.43574716352796, 37.155399641378075], [128.43965596206357, 37.14368194177857], [128.44354401351023, 37.14112642034809], [128.45219551878307, 37.14171853966329], [128.4611018265731, 37.1408353826582], [128.47032652506218, 37.14801901715791], [128.48285498197123, 37.15288765185905], [128.49303832336253, 37.15499335070671], [128.50354547334462, 37.1546153810544], [128.51027214667735, 37.15299098332868], [128.5192868451055, 37.14865472319145], [128.53034179751236, 37.138647095130736], [128.53814367241435, 37.13334877424919], [128.54250300881293, 37.12836523005601], [128.55167113405935, 37.12431712442327], [128.5590261640757, 37.11948213471777], [128.56537794406924, 37.11946451064202], [128.5721876997723, 37.118386992299115], [128.59011723608714, 37.111241059849036], [128.60362194595936, 37.11237191903602], [128.61303944848063, 37.115663233055585], [128.61998503179365, 37.116679099615645], [128.62704427222695, 37.11657217207125], [128.63393687895308, 37.11534670110121], [128.64038920139782, 37.1130513475043], [128.64614512626568, 37.109777243352866], [128.65908571920755, 37.09697365808818], [128.67379815378564, 37.08888925627878], [128.678788686582, 37.08536628361791], [128.68286913354393, 37.08115810967367], [128.68589581614128, 37.07641307978141], [128.68776226478047, 37.071298434142236], [128.68840294772644, 37.06599440502791], [128.68741270235864, 37.05747579376762], [128.68396075195218, 37.0495929786416], [128.68012418687513, 37.04493594996699], [128.67214695576072, 37.03915545713235], [128.66842791148, 37.03528091819877], [128.66665986427284, 37.03009323436232], [128.66364880516318, 37.02496820777192], [128.6569167880964, 37.018428033290036], [128.6480772914343, 37.013773191638386], [128.63791847998382, 37.011418589090255], [128.62734577259258, 37.01157408500668], [128.61498000075858, 37.014795300542346], [128.6081918720764, 37.013893822469704], [128.60566385423976, 37.00629009608835], [128.6007721469305, 36.998301719034195], [128.5964792705608, 36.99336184919589], [128.58807050448303, 36.98667690066661], [128.5844414347963, 36.98133002055271], [128.57950037842792, 36.97674518112567], [128.5659618513765, 36.96857581393143], [128.55677300351678, 36.964875402687845], [128.5454160259129, 36.96196454867727], [128.5300252299852, 36.94751135241836], [128.51377988254941, 36.93973067783842], [128.50597862209042, 36.933516660893844], [128.49612620016643, 36.92955626089164], [128.4944036892323, 36.923758615246456], [128.49145919720675, 36.91873788635342], [128.4873550583462, 36.91427279204172], [128.4807224317523, 36.90970905191709], [128.47481893621028, 36.89207643933397], [128.47188690665985, 36.88678228985339], [128.47685723866852, 36.88226028206312], [128.48033304762117, 36.87778158021679], [128.4831272284406, 36.8729906225196], [128.48496528919642, 36.867584132024874], [128.48544565923996, 36.86199288065088], [128.48423863912708, 36.85542369164594], [128.4853140516877, 36.84652038372381], [128.48330404164022, 36.83815571484351], [128.4787433752684, 36.8293115574627], [128.46754181515112, 36.8171464877968], [128.4636643291744, 36.80960399369181], [128.45923862645606, 36.80460221523703], [128.4546089754764, 36.79747056080409], [128.44972845491395, 36.79309038172801], [128.439652897276, 36.786519210609384], [128.43320916863755, 36.784115667964905], [128.42629794789323, 36.78279796946609], [128.41108174160445, 36.78192060050195], [128.39679197192606, 36.783267929747446], [128.38740616833877, 36.776280369083324], [128.38113161031336, 36.773528182760934], [128.3742968570798, 36.77184879789543], [128.36260452439822, 36.77133923920899], [128.3526479039049, 36.77255596210724], [128.34013761919255, 36.776980491623014], [128.3307669798514, 36.78267579594998], [128.32637094607233, 36.78662470530171], [128.3185777964682, 36.7863040978301], [128.31216702370622, 36.787116536722095], [128.30340063595523, 36.78926440303846], [128.2970571723866, 36.79181002502422], [128.289038287124, 36.79740009910738], [128.28414035503695, 36.80304188946023], [128.2819649092589, 36.806796738900154], [128.26924711376125, 36.81513378477816], [128.2616096715194, 36.82373639296193], [128.2535847528267, 36.819284578292326], [128.2528946013295, 36.81078887016478], [128.251558183277, 36.80495346773536], [128.2468172472113, 36.796933588409885], [128.23771049291622, 36.788879981097814], [128.22907875819922, 36.78478257549746], [128.21558937098897, 36.782477646498634], [128.20538316651874, 36.782798751202826], [128.19665277712258, 36.78428695981594], [128.18853559563792, 36.786912545523755], [128.1742536989916, 36.78850350610919], [128.1652366731539, 36.79170893268719], [128.15698223250453, 36.79195613302466], [128.14000925229732, 36.79505647009474], [128.13740980566078, 36.79114265593621], [128.13133429169125, 36.78508036392607], [128.12349243604123, 36.78027360089019], [128.11843255885705, 36.775485299837975], [128.11301796047715, 36.77214478569778], [128.10690596756, 36.769704511332385], [128.0959888338784, 36.76765546090722], [128.08933905410265, 36.76724912190994], [128.08087019366872, 36.76824287133512], [128.07929917237962, 36.761904128646194], [128.07673526025502, 36.75717282305504], [128.08762277298004, 36.74709073825226], [128.09557913180845, 36.74132463963725], [128.09948894860221, 36.73680602161285], [128.10645853539023, 36.723385874067674], [128.1088871451372, 36.71409572724547], [128.10818666716503, 36.7060839020257], [128.1034666534208, 36.69583084766396], [128.09808665319673, 36.68873554261725], [128.09038665832853, 36.68319871919118], [128.08428376987936, 36.68061432835763], [128.07425630916518, 36.678644049287975], [128.04475276342578, 36.678863862120345], [128.03234095004058, 36.68190462326724], [128.02201766564463, 36.68827555820882], [128.01694208437596, 36.6905279913092], [128.0045985078949, 36.68799560601565], [127.98969750088887, 36.68783152289865], [127.97731520493596, 36.68922634086731], [127.97159193484576, 36.684832469264556], [127.96323618605456, 36.68021489070988], [127.96750278589977, 36.670959428295724], [127.97162796225565, 36.66567876181733], [127.9740592258354, 36.66025567973732], [127.97508040787244, 36.65454870785815], [127.9753961761529, 36.645503733785596], [127.97447025598086, 36.64032408188628], [127.97211241370809, 36.63422287477074], [127.97135059534162, 36.626762833899576], [127.96905148983053, 36.62123060373816], [127.96775662193886, 36.61246605237061], [127.96561595133709, 36.607056883061695], [127.96234393978347, 36.60230558994147], [127.96120409431099, 36.59587724368031], [127.95835830140521, 36.589528712696556], [127.95454740646939, 36.58467634356094], [127.94960418611437, 36.58054147581759], [127.94109047538473, 36.57613020553512], [127.93232879279626, 36.57341988077855], [127.92070176610603, 36.5720967326487], [127.913612821546, 36.57243100953128], [127.90675102448489, 36.57390551240435], [127.900070974663, 36.57664462298247], [127.90609763069216, 36.56913321496847], [127.90856540457708, 36.56353965032691], [127.90959894929406, 36.558244843861424], [127.9141936480858, 36.556592910911206], [127.92490734890845, 36.550746118807], [127.92952534230928, 36.547053439176075], [127.93322227017919, 36.54273827080102], [127.93729199031837, 36.533679745194846], [127.93821521890101, 36.528464249140605], [127.93800843112513, 36.52391079867826], [127.94112179479093, 36.51526594219691], [127.94216837197007, 36.509833842384], [127.94127162554177, 36.50163577816944], [127.93750116266646, 36.49398951052274], [127.92497756387336, 36.47984620601591], [127.91830380870293, 36.47496092002815], [127.91742421352399, 36.468038851386304], [127.9184809402154, 36.461512462995266], [127.91792281344867, 36.4562068140922], [127.91239734605651, 36.44150496290166], [127.91754871034804, 36.432645829819094], [127.91871722226072, 36.42739545899609], [127.91879413847163, 36.42117581024485], [127.91728505325563, 36.413226968823466], [127.91008557353798, 36.40121942386132], [127.91559383129815, 36.39452298503152], [127.91852837158949, 36.38928329324436], [127.92009655087436, 36.38367296911358], [127.92016738289614, 36.377517033358075], [127.9249026353769, 36.36973181279401], [127.92730554109566, 36.357823275912025], [127.92646018227833, 36.35188305539647], [127.92365573881223, 36.34428541141581], [127.91352010502958, 36.33094934055298], [127.922339490679, 36.328149289283445], [127.93209812404905, 36.321633993262566], [127.93810170578946, 36.314571808314525], [127.94125118741322, 36.3061816670533], [127.95049249561552, 36.3024235601184], [127.95715585108255, 36.298456606753625], [127.9625041450233, 36.29372347037391], [127.9684523692307, 36.29091613745582], [127.97530649793394, 36.29238275583107], [127.9994351860366, 36.300489455208236], [128.0058616275571, 36.30159841125217], [128.0156969417105, 36.301403304393475], [128.0220485212705, 36.300040868650065], [128.02867980416568, 36.29740072901001], [128.03525983494097, 36.29656235865389], [128.04179289869344, 36.29461562910816], [128.04772202583644, 36.29166261918474], [128.05298043120567, 36.2876496990554], [128.06049691704064, 36.285293314761624], [128.07092936045748, 36.27968574565889], [128.0758425811171, 36.2757246089073], [128.07969693370234, 36.271058143288805], [128.08234190040102, 36.26586882401561], [128.08367432101062, 36.2603595336659], [128.0836423923442, 36.25474562105104], [128.08224765106024, 36.24924647887235], [128.07490694710467, 36.2372716427053], [128.0817233125563, 36.23016254954619], [128.0854342267723, 36.22140428446676], [128.09082587230256, 36.21480336857115], [128.09375311165678, 36.20767485830379], [128.09482437657235, 36.19930383778508], [128.09382539181615, 36.19374031384601], [128.08985540036304, 36.18596394237394], [128.08571260775332, 36.181455121599726], [128.07765895230713, 36.17614503426734], [128.05167714640825, 36.16692065721514], [128.041928319333, 36.16522028024867], [128.03040007469454, 36.165737707497165], [128.03198939229765, 36.16189918074938], [128.03299850850814, 36.15613908170284], [128.03176211921226, 36.14748923517525], [128.02915537320519, 36.1420690497421], [128.02436411971468, 36.13592629880534], [128.02395486309965, 36.12734523713222], [128.02006313574475, 36.11706306401689], [128.0146555328079, 36.109874939892705], [128.00358591908136, 36.10126648248348], [128.00134257801858, 36.09553324016524], [127.99706294892843, 36.08809094525185], [127.99795242595263, 36.077796348317634], [127.99626635902193, 36.06318611353418], [127.99441021339442, 36.058021678491315], [127.98947243578478, 36.05103592011887], [127.98491730825204, 36.047129574625345], [127.9795953391167, 36.04402132589141], [127.97007702578962, 36.034701855952605], [127.95672225009525, 36.02687658087233], [127.94700048358555, 36.02328698955907], [127.93777902145216, 36.021322420104035], [127.931530806271, 36.02089165446436], [127.92423038395624, 36.015173252853515], [127.91268273582446, 36.01058805694288], [127.90677841701198, 36.004272446198314], [127.90127213420422, 36.000271955388996], [127.891100089755, 35.99555149769107], [127.88427901560226, 35.993760476260356], [127.87356704268072, 35.993274536793656], [127.85551118571614, 35.99623818876957], [127.8466093344577, 35.99960580328688], [127.83957991684606, 36.00439093590731], [127.82945895039084, 36.00012683029537], [127.81816041356934, 35.99847959210259], [127.80814022538628, 35.99038092904346], [127.79901773100123, 35.98662131245545], [127.79235696489512, 35.98538459421856], [127.7828224793736, 35.98548513154598], [127.76999801911506, 35.98298775864183], [127.76297431851383, 35.98292401207992], [127.75607669899767, 35.98400287984387], [127.74479622059671, 35.987311856105705], [127.73909979042519, 35.99037297645851], [127.73138653922766, 35.99662175485044], [127.7202997472354, 36.000941135713575], [127.70582616996292, 36.004595932544], [127.69902715029586, 36.005116828239075], [127.69046386791996, 36.00737330511411], [127.68378012017594, 35.999413410465095], [127.67573438564423, 35.99380512142216], [127.6644492201076, 35.98931766605735], [127.65281455237833, 35.98760211115913], [127.65080971502798, 35.97950456741919], [127.6454821773292, 35.971488959135975], [127.63724739530498, 35.964552811745065], [127.6288353975994, 35.96080485358384], [127.61595275636974, 35.95790546994662], [127.60905180732945, 35.95749184270381], [127.59885053291254, 35.95895265805793], [127.58952580179235, 35.962356770627835], [127.58144875644003, 35.967544051949204], [127.57725537286707, 35.97197438886007], [127.57210460945365, 35.97994585703986], [127.57030665947246, 35.986290607811725], [127.567855168026, 35.98148770919789], [127.5605519102033, 35.97253750792269], [127.54590596308765, 35.9614911537344], [127.53982570163525, 35.95851419681075], [127.51695760510336, 35.95118560621549], [127.50726027674077, 35.950237460264916], [127.50003208533526, 35.95074052818246], [127.4893401856735, 35.94890162390116], [127.48253942400778, 35.94917176774982], [127.46050625548874, 35.95405708606651], [127.45025067129633, 35.95436521989521], [127.44083958645841, 35.9569728657708], [127.43367948858862, 35.96066624805672], [127.42895789754982, 35.964253457277934], [127.4154549856857, 35.98179958092797], [127.4079702882581, 35.97986077980156], [127.40089614317313, 35.97934053030727], [127.39383865995757, 35.979993415506286], [127.38708918421949, 35.98179248259449], [127.37663437397602, 35.98637339787482], [127.36463453332021, 35.995134227151375], [127.35285180627076, 36.00148214918773], [127.34821424027795, 36.00586163053008], [127.34476294672658, 36.010912974337955], [127.34264091941729, 36.01642723875778], [127.34193725053852, 36.02248982327612], [127.33935694214041, 36.02937598773828], [127.33193377738138, 36.03690205573464], [127.32757147888752, 36.04372098530219], [127.32516059831612, 36.050605597728456], [127.32492056048507, 36.06173183709456], [127.323485549694, 36.0707448473955], [127.32125902476876, 36.077619814018036], [127.31425998227544, 36.088002145892595], [127.3049889724951, 36.084309090061176], [127.29613464003694, 36.08296535067291], [127.29176700199086, 36.08066498576435], [127.2886457203657, 36.07272700727581], [127.28326641030088, 36.06558003350035], [127.27555427032175, 36.060017377672686], [127.26351015481472, 36.054993993216684], [127.25097673589379, 36.05281919290376], [127.2407021559204, 36.053663549935706], [127.22784258095291, 36.05805003389086], [127.22013626982539, 36.062150422586676], [127.21414643468614, 36.059318653074406], [127.2042852683824, 36.05701323197529], [127.1914174334374, 36.0565778018954], [127.18484140708098, 36.057544542216995], [127.17460883557564, 36.05492215735176], [127.1650414976213, 36.05458926081512], [127.16221881358761, 36.05038350608011], [127.15568027352012, 36.044381734093946], [127.14990261199587, 36.04072783377296], [127.14331512724206, 36.03813091648637], [127.12995609745562, 36.03437369289944], [127.12307150120334, 36.03364662720056], [127.11614574202243, 36.03403831933503], [127.10627438808, 36.03667784529389], [127.10041630833486, 36.03970446271374], [127.09616805416411, 36.042957451356564], [127.08971736923688, 36.0424955994681], [127.08297338941917, 36.04306684338139], [127.07342596686044, 36.045867308820746], [127.06778869079804, 36.04892776412945], [127.05498037340934, 36.058635277349815], [127.0405642800427, 36.06484136779597], [127.03527436489541, 36.06840511782656], [127.02919353041902, 36.07514493575122], [127.02660405327222, 36.080314760089784], [127.02468344244244, 36.09004273947888], [127.02430408387208, 36.09634961670821], [127.02246428154515, 36.10148112594438], [127.02169138983871, 36.107261849055064], [127.0098710409291, 36.109532553504096], [126.99965655324563, 36.114195062257316], [126.99479499054527, 36.11756641342273], [126.97389029333276, 36.119106407577405], [126.96672155977235, 36.12039505265847], [126.9594109006112, 36.12294735860765], [126.95298844664374, 36.118472900824095], [126.9320819012405, 36.108699700988204], [126.91972801715679, 36.106638763373304], [126.91100177526981, 36.10654221841548], [126.90975366057533, 36.10408203147498], [126.90933491748876, 36.08344845319946], [126.9059139356329, 36.06093347420561], [126.9035475973658, 36.05526584182262], [126.8988854592657, 36.04735873172794], [126.89284182477583, 36.04111434845716], [126.88322464044873, 36.03543500652027], [126.87659481380754, 36.03269383544912], [126.85330161360751, 36.02547638253113], [126.84280276891829, 36.02358211812907], [126.83101734501356, 36.012939944310965], [126.8199944947022, 36.007342808748724], [126.80185062581832, 36.00347179220467], [126.78093840515406, 36.001169798261785], [126.77879774327953, 36.000217680827554], [126.77643256220254, 35.993774765010755], [126.7689083841841, 35.98134751306494], [126.7612939933555, 35.97505434592459], [126.74727464308349, 35.967276843108564], [126.73754771157283, 35.964856785983834], [126.72143461422861, 35.96489319907855], [126.71160239414594, 35.96640889133533], [126.69995038695673, 35.97057372866], [126.69279947181757, 35.96738392055956], [126.68620521381003, 35.96578889279329], [126.67109326853291, 35.96451627360676], [126.65370623397298, 35.9647124494038], [126.64488960343547, 35.96207054402117], [126.63388516200054, 35.96093720352295], [126.62526692714873, 35.95704201762122], [126.61816441293442, 35.95544792505639], [126.59728210698185, 35.95449922168561], [126.57122375819715, 35.95824373921802], [126.5619456636125, 35.9616222929073], [126.55659919555559, 35.965026625345544], [126.53691563974112, 35.98360084041887], [126.5321882618479, 35.991482845952056], [126.53064444365252, 36.000161144171685], [126.53114187471127, 36.035513904990644], [126.53341470300965, 36.04698737797601], [126.49660485242792, 36.062132790200785], [126.36647963646693, 36.11857363339939], [126.02587241286449, 36.133408502744196], [125.51364964497675, 36.249914025449876], [125.50718495786695, 36.25194722179091], [125.49872383003955, 36.25681935182279], [125.4942288784136, 36.26109705664493], [125.30930069125107, 36.4764443812379], [125.28864277240069, 36.503298172945506], [125.27411088123517, 36.5308662899604], [125.2536866153677, 36.58315864283945], [125.25223682260525, 36.588981903912035], [125.25290007782175, 36.64914042544912], [125.25398896849136, 36.65582479810259], [125.26952547388984, 36.704909883418125], [125.27170268312508, 36.709835296098525], [125.36260839026693, 36.86734327461662], [125.36857503722347, 36.87453526620885], [125.3769603441715, 36.87995053677013], [125.38698654762634, 36.883086504552864], [125.39412652413247, 36.88375744547601], [125.81119186693523, 36.887886679656596], [126.03228609798938, 36.95706203743253], [126.15922007029029, 37.03745387878304], [126.2634821856369, 37.08317074047348], [126.41643107299176, 37.11261144527342], [126.4264776086519, 37.1125751622336], [126.43299306039535, 37.11128960386526], [126.4634308513955, 37.09772080961423]], [[127.88725218835903, 36.588597636208846], [127.8847226820636, 36.59346955582911], [127.88265401129702, 36.59179286497194], [127.88332851816797, 36.591360829504126], [127.88725218835903, 36.588597636208846]]]}}]}
