{
  "type": "FeatureCollection",
  "_comment": "OSM 추출용 **경계 상자**다. 서비스 지원 지역 판정 폴리곤이 아니다(그 파일은 아직 없다). v2.3 1-3 '데이터 추출 범위 = 서비스 경계 + 시설 검색 여유(3km) + 경로 우회 여유'에 따라 충청권을 넉넉히 감싸는 사각형을 쓴다. 정밀한 행정경계 폴리곤으로 교체하면 추출량이 줄지만, 경계 밖으로 도는 경로가 잘리지 않게 버퍼는 유지해야 한다.",
  "features": [
    {
      "type": "Feature",
      "properties": { "name": "chungcheong-extract-bbox" },
      "geometry": {
        "type": "Polygon",
        "coordinates": [
          [
            [125.9, 35.7],
            [128.3, 35.7],
            [128.3, 37.3],
            [125.9, 37.3],
            [125.9, 35.7]
          ]
        ]
      }
    }
  ]
}
