{"type": "FeatureCollection", "_comment": "충청권 지원 지역 폴리곤 (v2.3 3절). OSM admin_level=4의 대전광역시·세종특별자치시·충청북도·충청남도를 합쳐 만들었다. 단순화는 바깥쪽으로만 했으므로 실제 행정경계를 덮는다. data/data/make_region_polygon.py로 다시 만든다.", "properties": {"version": "osm-2026-09-11", "source": "OpenStreetMap admin_level=4 (Geofabrik south-korea)", "license": "ODbL 1.0 — © OpenStreetMap contributors", "original_points": 13087, "simplified_points": 1837, "tolerance_deg": 0.0005, "buffer_deg": 0.001, "bounds": [125.28728170668539, 35.977268232726274, 128.6529743981935, 37.259332313228825], "per_sido_parts": {"대전광역시": 1, "세종특별자치시": 1, "충청북도": 1, "충청남도": 1}}, "features": [{"type": "Feature", "properties": {"name": "chungcheong"}, "geometry": {"type": "Polygon", "coordinates": [[[126.93370460122125, 36.14217448551], [126.92301007250504, 36.1376548287709], [126.92007094943175, 36.13537418752238], [126.91470890863847, 36.13474397823608], [126.9106341647323, 36.1356796265837], [126.90376571178909, 36.140365466646045], [126.90059681750276, 36.141418449602206], [126.89553135419705, 36.14147091558256], [126.89025748914183, 36.138785720995436], [126.88313090854858, 36.13085055039445], [126.8800894511444, 36.12344096487101], [126.87842310052345, 36.116805888597], [126.8748192799535, 36.11021534892055], [126.87458166199823, 36.08672407302106], [126.87178820896857, 36.06716233040365], [126.86863519106888, 36.061610645237664], [126.86413317677321, 36.059228306353525], [126.84083337227815, 36.05200839541935], [126.82986343352637, 36.05086529295578], [126.82152724290222, 36.048990688446374], [126.81962409332779, 36.047554529485495], [126.81485977634259, 36.04059696317782], [126.80894067144453, 36.0349598084097], [126.80608620719146, 36.0333971711646], [126.79403384545562, 36.031151405077544], [126.76995757033839, 36.02866153785668], [126.76180710681722, 36.02503633593947], [126.7486237266942, 36.02486350938862], [126.7458784451037, 36.02084748647395], [126.74260456838378, 36.01187555049807], [126.74442159087498, 36.0051707828975], [126.74048684309865, 35.99786925527043], [126.73229322505647, 35.99293246020816], [126.72296187511527, 35.99326465716494], [126.70831288971961, 35.9986801171506], [126.69892727310844, 35.99922247185694], [126.68787991405064, 35.99813914888762], [126.67958476040927, 35.9936728360863], [126.6678784859753, 35.99279416716476], [126.64757108735795, 35.99326367831488], [126.63564526879314, 35.9894566261933], [126.62247534219757, 35.988868713324436], [126.61246981174423, 35.98346622904161], [126.59937307972129, 35.982846364967116], [126.58071552463112, 35.98557341459671], [126.56558935470436, 35.9998314160883], [126.56610240365218, 36.035184266901176], [126.5694292420277, 36.04813505491134], [126.5783812707618, 36.060314613764334], [126.51311498777606, 36.08716777650889], [126.37612747665271, 36.146583090952134], [126.031586698332, 36.16142109761075], [125.5230453767579, 36.277263153683], [125.33815399522834, 36.492655931532525], [125.31985903045562, 36.51636164340316], [125.30651819206925, 36.54189939506344], [125.28728170668539, 36.591622006826434], [125.28812188536877, 36.64880984298403], [125.30367915218413, 36.697891204943964], [125.39463874452166, 36.85537667271355], [125.81802545520665, 36.859552508689085], [126.05005974733925, 36.93214643554969], [126.17876629390484, 37.01378106316934], [126.27765169501393, 37.057149124393064], [126.42129601746026, 37.08448840085752], [126.46571566782838, 37.063821981674174], [126.48616442589662, 37.074371533082505], [126.50638389953419, 37.09703879380924], [126.52785632857413, 37.09105928566556], [126.54455233871471, 37.04615192311795], [126.55661026372701, 37.043722416357575], [126.56491407199006, 37.05004877845862], [126.58749720281699, 37.0511169944245], [126.6150111927841, 37.070429744626665], [126.71733676783145, 37.02193128167859], [126.74520975839593, 37.012398083391744], [126.76120097997712, 37.003270027691755], [126.79075011484296, 36.9882961797852], [126.82481211202902, 36.97327214308417], [126.82952893140536, 36.96931153031983], [126.84183148616394, 36.95299671211662], [126.84125732567561, 36.951933880287626], [126.82611932861622, 36.94504713335587], [126.83528483894527, 36.91263160058456], [126.83874073267513, 36.90728868682892], [126.85055188659734, 36.89898261679408], [126.85789234701976, 36.89860221125714], [126.9029839396613, 36.90284334598189], [126.92058011758095, 36.90886173990682], [126.9397649265079, 36.91786488354469], [126.97407075522229, 36.92754294044521], [126.98075979524911, 36.93111775725579], [126.9844062042036, 36.93460583855021], [126.99057534949733, 36.93433605785503], [126.99540058792503, 36.93644997885266], [127.00073864653972, 36.93574326395219], [127.01488308842863, 36.93571671631538], [127.03185200660972, 36.92946126057616], [127.03767771908552, 36.93344506777522], [127.04062046267077, 36.93335715738157], [127.05058301264529, 36.93565446179734], [127.06057620422456, 36.9405060270573], [127.07200460717434, 36.940920095397], [127.07396921072339, 36.94262182673893], [127.07580105924507, 36.94156233069303], [127.08559392661365, 36.94874253747596], [127.0955277550316, 36.948891981697116], [127.09990430448715, 36.95151812980184], [127.09708928515846, 36.954420198513425], [127.09514163081886, 36.95509389024292], [127.09555200133536, 36.95786294322833], [127.09443043275537, 36.95847835864424], [127.09417219238526, 36.960079496559885], [127.09819505381563, 36.96178177059115], [127.09997295433729, 36.961779371828214], [127.10156447547642, 36.96572724782871], [127.10599756873664, 36.9667196071067], [127.10632337268144, 36.96853808098821], [127.10924422057055, 36.9696810608133], [127.11068777544207, 36.97316183956639], [127.11239329201622, 36.97415554636981], [127.11568714498739, 36.97231254882043], [127.12069837920843, 36.97122169198287], [127.12176743621458, 36.96922794603534], [127.12455063530138, 36.96933370591716], [127.12961014498318, 36.96742246277221], [127.13235195807536, 36.96799117896582], [127.13466495370615, 36.967292511564715], [127.13611516904994, 36.969182499401], [127.1441340930382, 36.972132806180724], [127.1470345757778, 36.97197376060113], [127.15030999849635, 36.970412055900304], [127.15477215819138, 36.97146676531741], [127.15907827161433, 36.970903299511], [127.16014963377842, 36.969420102023754], [127.15902723802985, 36.96833581199747], [127.15862892127954, 36.96612201560028], [127.15704393998772, 36.965317566765414], [127.16108417870684, 36.96529200718979], [127.16521022925893, 36.963029787711186], [127.1718778016545, 36.9642551082018], [127.17535371896967, 36.96332763505382], [127.17858352777581, 36.9634394632598], [127.18003146112864, 36.9606158277647], [127.1801633721255, 36.95821110106259], [127.18111625089861, 36.95763556684318], [127.18522864027125, 36.95621806510254], [127.18838334531065, 36.95615561344745], [127.19110724335718, 36.95343430369747], [127.20143287129203, 36.9529903566444], [127.20427544075392, 36.951262442445554], [127.20572728367215, 36.948291152980524], [127.20781406538259, 36.94645494074677], [127.20708098656145, 36.94233537223111], [127.21189723576013, 36.939316961269384], [127.212514390932, 36.93810434415018], [127.21275429452098, 36.936678176581985], [127.21119782877273, 36.9340540458945], [127.21088701419521, 36.931571332796146], [127.2169209140578, 36.931672748643116], [127.21791583404936, 36.93056819790331], [127.22064982576433, 36.9313956288088], [127.22888397484009, 36.92545668597859], [127.23198814824975, 36.9256726822947], [127.23395025533634, 36.92462687105173], [127.23680696983624, 36.924610919666264], [127.23830562709577, 36.92133658066359], [127.24443889041147, 36.91871279307136], [127.24800330176221, 36.919733011084325], [127.2484429492109, 36.92209613146318], [127.25322817765148, 36.92343185451666], [127.25903671382989, 36.91678987817274], [127.26201302819852, 36.9156606082575], [127.26597345424314, 36.916026761946796], [127.2671227267776, 36.914739494940484], [127.27078368917364, 36.914295454995305], [127.27306692296321, 36.91501236402859], [127.27470582712958, 36.914350894038485], [127.27528835976791, 36.91347166935037], [127.27439692137895, 36.91180068970977], [127.27499887868359, 36.909860018686196], [127.27947003289094, 36.907027340478216], [127.28068129880086, 36.90482155140905], [127.28039046209253, 36.90077075780382], [127.28423626200991, 36.89808243673071], [127.28516464627039, 36.8961134680706], [127.28716744669678, 36.894994696452315], [127.2886777296569, 36.895109057257066], [127.29003758081939, 36.89763465801536], [127.29693802081654, 36.90354252552746], [127.29690646148507, 36.90584972920314], [127.29886011792183, 36.90748497686398], [127.29877249080556, 36.90856183219427], [127.3025180137579, 36.914072099070225], [127.3020116831676, 36.91619981137372], [127.29977504223449, 36.918413153590635], [127.29447393291441, 36.928825105793514], [127.29397790455978, 36.93079965340172], [127.29495139543161, 36.93201776135488], [127.30014195762882, 36.93046746488562], [127.30382330633613, 36.93105836682966], [127.308730308488, 36.930456397755606], [127.3138083864383, 36.93221170699118], [127.31589932786085, 36.93567145356568], [127.31834831218632, 36.93537396104315], [127.3227093149017, 36.93750967932672], [127.32619843928147, 36.93692929015397], [127.3297841175318, 36.93844552348665], [127.33277001992863, 36.94125662077159], [127.33873984140435, 36.944060826922254], [127.34161431828545, 36.944201043174644], [127.341414557406, 36.94652241470171], [127.34250915359146, 36.948927481899005], [127.34938770779429, 36.95376372835322], [127.35450953371453, 36.95353138644897], [127.35648134205275, 36.95203232842843], [127.35825977062893, 36.949012425303714], [127.36161897858858, 36.950485103658856], [127.36537567514189, 36.950089640139645], [127.36722405010957, 36.95129559624597], [127.3684399026914, 36.95063580080128], [127.37219435710037, 36.950889284036535], [127.37476665231115, 36.949610102418475], [127.37729682305013, 36.9525947926563], [127.37794200178996, 36.958519283074125], [127.3823346109959, 36.96076651647577], [127.38418459702918, 36.96059273838249], [127.38666123246057, 36.965258889372116], [127.389706169272, 36.96522307342788], [127.3918574140738, 36.96659222600104], [127.39731484405537, 36.96565935277009], [127.39987209496802, 36.96775522797667], [127.39557099142331, 36.972644066464966], [127.39534348492747, 36.97421612828422], [127.39348398511025, 36.97627214735242], [127.39011867680753, 36.97743220634085], [127.38873932773262, 36.97927972672348], [127.38552061423783, 36.980588674948145], [127.38400723403628, 36.98337212810425], [127.3842322843831, 36.98478847183611], [127.39038502872795, 36.99207119708951], [127.39197991135804, 36.99770407447139], [127.39385994221695, 36.99931075236471], [127.39829880684229, 36.99975345999339], [127.39967682071077, 37.000854486616255], [127.40677931065397, 36.99937296506819], [127.41117061804314, 37.00116733018276], [127.41409652096179, 37.000559491992426], [127.4211253874186, 37.0049528479789], [127.42355470536083, 37.0041219222039], [127.42528468740348, 37.004513770333325], [127.42997067102701, 37.00262957562799], [127.43252387708397, 37.0054408163173], [127.4356997662329, 37.00628419091877], [127.4362368390731, 37.008838906677006], [127.44034105823071, 37.01297593555841], [127.44466489720823, 37.01299701711828], [127.44618496067591, 37.01223049885589], [127.44757800439497, 37.01345425140752], [127.4473773108222, 37.01683504064168], [127.44910170222246, 37.019152978317045], [127.45336147747055, 37.02218630868932], [127.45742859646485, 37.0214516300758], [127.45805305165904, 37.0224693030617], [127.45819655216225, 37.02681578154164], [127.45704230378817, 37.02903631405789], [127.45524651738168, 37.03031570398006], [127.45853701093665, 37.03596786062079], [127.45863978730831, 37.03815479684483], [127.4562590209716, 37.040119844035694], [127.45590041118274, 37.0424926957168], [127.46066374571505, 37.047811742162416], [127.46744662264952, 37.051383391709244], [127.46676617305191, 37.05313974825597], [127.46809203315271, 37.054760233101746], [127.47509528585503, 37.0570888994832], [127.47598693482198, 37.05658727348907], [127.47653800804123, 37.05440870534762], [127.48427521118047, 37.05438929468453], [127.48659712583766, 37.05552967482151], [127.49718700830142, 37.04931115516813], [127.50453093630762, 37.04902648018024], [127.5082960284527, 37.050323724086056], [127.51073976890969, 37.05610989107121], [127.51433605329267, 37.058072279776844], [127.51498033797037, 37.06096264000751], [127.51596274918752, 37.061513295271574], [127.52097570719015, 37.05795289397364], [127.53125950329789, 37.05672747822523], [127.53467673462944, 37.05340373516585], [127.54005756062884, 37.05069367238766], [127.54625385498996, 37.048758028766414], [127.55075937693142, 37.046331699447954], [127.55658399995306, 37.044973358066244], [127.56099908699056, 37.0496021683717], [127.56690276629638, 37.048980854936445], [127.56592210597108, 37.052387459090994], [127.566842771644, 37.0556726485564], [127.56415213590711, 37.058565845209124], [127.56406903858147, 37.06108552364165], [127.56533905444381, 37.06361519506725], [127.56943319376583, 37.0669472376282], [127.57041581118297, 37.069312416079605], [127.57271623950624, 37.07054350164517], [127.57289268162477, 37.07199625044153], [127.57558611673146, 37.07484525009505], [127.57920579537449, 37.07648148539491], [127.58747692443919, 37.07547059894953], [127.58904828365155, 37.073936134396746], [127.59606357786949, 37.074973701314455], [127.59846355943296, 37.07396062734616], [127.60001659968856, 37.07187441366238], [127.60222111861954, 37.07226537119344], [127.6034098483233, 37.07023614655909], [127.60289298128778, 37.07249779543056], [127.59936219256956, 37.07482691761462], [127.59483110458744, 37.08030775763329], [127.59315083600288, 37.083946219096084], [127.59006653069206, 37.08743544583783], [127.59018553576291, 37.08968928005695], [127.59129064334165, 37.08987632064873], [127.59262341247008, 37.08831474598025], [127.59440547165293, 37.08789497941664], [127.60088291253297, 37.089236399522726], [127.60406052626351, 37.08892699598148], [127.60540649108525, 37.087217899498924], [127.61268037550587, 37.087512077653884], [127.61617242437151, 37.090127385902406], [127.63123346323229, 37.09730600820098], [127.63353103459404, 37.09997534132627], [127.63419152566954, 37.10402181736199], [127.63277718241861, 37.10697227267257], [127.63272826923743, 37.11016248610859], [127.63432439322546, 37.11514568279614], [127.62819530220466, 37.130917352039106], [127.62918706504301, 37.135328759683325], [127.62804651091972, 37.1406213739199], [127.62832413883287, 37.14233932207636], [127.62936958207477, 37.1432249522379], [127.62767075397042, 37.1467749731821], [127.62789845384364, 37.150488867571404], [127.6271006305958, 37.15339036089572], [127.62779752809492, 37.155666477740915], [127.63384323429786, 37.154788937224474], [127.6345622621031, 37.15410724162064], [127.63891440729502, 37.15407737108441], [127.64120511991844, 37.15222190210566], [127.64304855621052, 37.15286178768906], [127.64850920542479, 37.151512104527264], [127.65092542502815, 37.14845778595216], [127.65281159384358, 37.14894267741838], [127.65708312954732, 37.14558587930421], [127.6575470594172, 37.14446451519205], [127.65672658349425, 37.14332712907299], [127.66168402960707, 37.14034450392924], [127.66640886006452, 37.14036970144394], [127.67030847548703, 37.137193689795886], [127.6774839533219, 37.1377539507467], [127.6807368347024, 37.13670300317955], [127.68281535891573, 37.137456301912046], [127.6867287745302, 37.136103723442105], [127.68808971748605, 37.136471946519], [127.69385412695536, 37.140527003267444], [127.69308452969123, 37.1456492540779], [127.6944095810435, 37.15184232940761], [127.69988387874774, 37.15446585652826], [127.70317410470987, 37.15796149123125], [127.70362042926106, 37.16675340869242], [127.70594117951494, 37.171283542722605], [127.70803642127353, 37.17181951464194], [127.70953150285547, 37.17625742590597], [127.7131256579654, 37.17932880094493], [127.71370817912064, 37.1817098926039], [127.71572203147511, 37.182901244439655], [127.71642330568491, 37.18430669784102], [127.72023575046711, 37.18450860947975], [127.72209342855913, 37.18388089503595], [127.72285138905293, 37.18266658359443], [127.72553493636589, 37.183229766815145], [127.7269457979373, 37.186782516753986], [127.72744047658405, 37.192203208515274], [127.72921990974227, 37.193633560259066], [127.7297369772969, 37.1954986335302], [127.73167469156854, 37.19651548536298], [127.73120347099282, 37.20160112649166], [127.73350938853153, 37.20379352262954], [127.7343860305542, 37.20855927597557], [127.73610861552712, 37.21096896995262], [127.74114432892695, 37.21299182464604], [127.74285121168822, 37.21532976209211], [127.74418677401947, 37.21585926422787], [127.74708920080376, 37.21401527622027], [127.74518938617746, 37.21129509158431], [127.7451651927174, 37.209095036403504], [127.74897858843481, 37.20184176602091], [127.75321390832528, 37.180952707436624], [127.75691242778464, 37.171955056814575], [127.76622050588897, 37.15984473727457], [127.7714404624975, 37.155912050723636], [127.77871943835703, 37.152422261331445], [127.7800076051429, 37.15076218853634], [127.78490339969835, 37.14766765913323], [127.78820675921105, 37.14657747081178], [127.78986294376745, 37.14488346835143], [127.79498428818178, 37.147143166337045], [127.80148757183088, 37.14540666407818], [127.80435647781935, 37.14764225803367], [127.80680868262132, 37.14833502074473], [127.81438234597739, 37.14765074854347], [127.81844364694089, 37.14904809296156], [127.82314588147052, 37.15465976887677], [127.82990138034236, 37.15607077868105], [127.83192546496832, 37.15570607751252], [127.8346451272733, 37.15315982485989], [127.83615762282044, 37.152775972146465], [127.84935371486354, 37.1544430015717], [127.85089737021315, 37.16014536161156], [127.85354248192643, 37.16181704530337], [127.85642065587135, 37.16075131839583], [127.8566001369789, 37.158687756959594], [127.85586451393293, 37.15751326290141], [127.86069197796657, 37.15674174439163], [127.86018371868789, 37.160121218951964], [127.86134594770836, 37.16233610392054], [127.8662548015359, 37.1632706056857], [127.87105427144486, 37.16535382998084], [127.88664628527074, 37.162062819298754], [127.89112692584611, 37.159969197195], [127.89619162386931, 37.15673609294136], [127.89921530096618, 37.15117559312451], [127.90092174085983, 37.15255314009414], [127.9029052744255, 37.157408986482004], [127.90258375291977, 37.16052375689413], [127.90536134279361, 37.16240581505095], [127.90623733971285, 37.165631508328225], [127.90803095418319, 37.1679226861317], [127.91527568422971, 37.169854604953386], [127.92359379260996, 37.16494109526566], [127.9255113765839, 37.16621779427203], [127.92649503071269, 37.17037517340618], [127.92964943281646, 37.17239431785155], [127.93087057453589, 37.175324983615404], [127.9324048868887, 37.17639320000771], [127.93161409865871, 37.18255809739155], [127.93320255185046, 37.185872132184365], [127.93476857324046, 37.18699985535869], [127.93490101720936, 37.18865086617203], [127.93202615581865, 37.19272795297735], [127.92994140332773, 37.200928369696754], [127.93149599972054, 37.206703578430975], [127.9286339109304, 37.2113183727287], [127.9261478254704, 37.21940892150689], [127.92157034997146, 37.22169201896691], [127.92058511929578, 37.224981782175774], [127.92109399090985, 37.226409733477844], [127.92596496199303, 37.232354611353934], [127.93062109037042, 37.23497718289202], [127.9384057921364, 37.241623019546715], [127.94491307588434, 37.24156681903022], [127.94601639282828, 37.24232783052111], [127.94665172440361, 37.24486720017484], [127.95225430340872, 37.24882690610796], [127.95740048673885, 37.250772994033106], [127.96404461182757, 37.251925526893935], [127.96934262264654, 37.25661837681794], [127.97983449527717, 37.259332313228825], [127.98192447251417, 37.257803537552235], [127.98529576257263, 37.25912504335171], [127.98727780822273, 37.258783401656494], [127.99428928468554, 37.254774569633405], [127.99910729008234, 37.25585800304955], [128.00073144918449, 37.25447133339735], [128.00830769533, 37.25306174659818], [128.0132439361174, 37.24848063491732], [128.01691785133286, 37.24784281756996], [128.01902255319962, 37.24635667717396], [128.0209194062431, 37.24161444028479], [128.02091127047623, 37.23672556587891], [128.02208812253068, 37.23051531230946], [128.0237354371378, 37.22662266164266], [128.02601606144307, 37.22695253346034], [128.03263478671383, 37.22466164175789], [128.03361198220244, 37.22076552972496], [128.03663558084398, 37.21943888827105], [128.0397092764592, 37.216334324591934], [128.03969898935543, 37.21412762792814], [128.03741665161863, 37.21191337968179], [128.03390617074066, 37.210168518678266], [128.0336139851612, 37.20817405418986], [128.0314021257361, 37.206518011676145], [128.03041295424234, 37.20318789691432], [128.0294055944308, 37.20246644263942], [128.03250547840554, 37.199795618427316], [128.0332273653832, 37.198164940086045], [128.0332355257359, 37.19410860914964], [128.03466814157, 37.19207276475566], [128.0363678773297, 37.19067207830454], [128.03873372145094, 37.19011403790331], [128.04083363153987, 37.190004139904744], [128.0437247766689, 37.19188570786879], [128.0494328376892, 37.19065769326994], [128.06037740430222, 37.19508818480075], [128.0632128945903, 37.193819992864206], [128.0699780522135, 37.195485667136424], [128.07236170505183, 37.195423237234586], [128.07417801185514, 37.19413643385685], [128.07737167349126, 37.19474522915484], [128.08511497953936, 37.197898379039884], [128.0879172777655, 37.200349786279524], [128.0944814905864, 37.20089622407643], [128.1081381480469, 37.2065235756695], [128.11084065414474, 37.20846579060621], [128.11030657629817, 37.21072195387764], [128.1132358136381, 37.21354993387179], [128.11463446975102, 37.220753269880575], [128.12102713406395, 37.22550706113418], [128.1198039608291, 37.22721585399721], [128.1205697079308, 37.22967694388507], [128.1252113982597, 37.23557822496252], [128.130082287572, 37.23460978513118], [128.13338674783688, 37.23074761620806], [128.14100852516796, 37.23043495096885], [128.1429244327968, 37.22906524642279], [128.14326366839293, 37.22497078316099], [128.14525528022835, 37.223142960866944], [128.14717991701542, 37.223280176573965], [128.1492631983408, 37.22161787685512], [128.15142457921328, 37.221563662025716], [128.15471161594917, 37.21671882358307], [128.15825691454936, 37.217281981698484], [128.1619065559241, 37.216300944547605], [128.16402254798336, 37.214434966924344], [128.1675377346225, 37.216679385935855], [128.16916854264426, 37.21867668081378], [128.17201697877488, 37.21931079547771], [128.17157500589204, 37.22522896628924], [128.1745167282442, 37.228258030570665], [128.1726486054248, 37.23077623821408], [128.17338157547928, 37.23330245640916], [128.17657757682375, 37.23484463058964], [128.17772566066674, 37.23640335107891], [128.18367270086182, 37.23914107444003], [128.19266761392774, 37.2461065434146], [128.19930123118428, 37.247919031047736], [128.20109654926281, 37.249967202232696], [128.20801180734566, 37.24980005059783], [128.21071372652352, 37.24674299590669], [128.2152382944577, 37.24687988017611], [128.21579959581928, 37.242774299698496], [128.2210161278654, 37.241009561144764], [128.22426788692223, 37.23486257084831], [128.22507632890992, 37.233904237249895], [128.2268670904759, 37.23360436533563], [128.2294450533614, 37.23074638793524], [128.2295979946403, 37.22854944269417], [128.2326194619922, 37.227975854478345], [128.23751417105288, 37.2303142717869], [128.24436558956904, 37.227770600315466], [128.2490257474301, 37.23041048963878], [128.25141872185304, 37.230456568985865], [128.25878156583585, 37.221829117059926], [128.2606154415196, 37.21698898879158], [128.26718127626435, 37.21133893347643], [128.26864637798397, 37.20904966822302], [128.27266826849723, 37.21083941581702], [128.2804496764791, 37.21057872100853], [128.28319255301588, 37.21123140753442], [128.28791026639655, 37.21603617893825], [128.2912316991272, 37.215663530153115], [128.29346624344734, 37.21692911962934], [128.30836832561727, 37.218274275493975], [128.31347735196846, 37.22351732417328], [128.31683205634758, 37.22435980301115], [128.321427383998, 37.220267475472525], [128.3241725606366, 37.22017272069338], [128.32728855967852, 37.21779906246633], [128.33430934340498, 37.21619456240406], [128.33398661045666, 37.214396326299294], [128.33096613530486, 37.21000314545576], [128.3308458770821, 37.207521064910864], [128.32967113857708, 37.20524611563587], [128.33062269704067, 37.20206672269281], [128.32824197953488, 37.19787983465438], [128.3258186836769, 37.19593527776706], [128.32267525886533, 37.19721557672538], [128.32272141111028, 37.19528029188539], [128.32190773059392, 37.19455890347578], [128.31420077365442, 37.195706098768035], [128.31480917590932, 37.18920572799882], [128.31190723979634, 37.18881823718786], [128.31119226280728, 37.18662755766298], [128.30941228764647, 37.18642846140456], [128.3079652869666, 37.18505213124537], [128.30312905459363, 37.185692380062136], [128.3003489751645, 37.182677171005494], [128.29670862333327, 37.18246885466361], [128.29906398358705, 37.17178963170351], [128.29858754944442, 37.17080223953089], [128.28965345605852, 37.16914864299721], [128.28750669234176, 37.17031204504961], [128.2820920004818, 37.17084766400537], [128.2808368046907, 37.17224103837332], [128.27860446591677, 37.171151132003175], [128.27717752807234, 37.17144321301826], [128.27151434836173, 37.165693875641075], [128.27112276056405, 37.16109654682532], [128.26575392960248, 37.15991437496223], [128.26710302499956, 37.15708762371378], [128.27140540763094, 37.15480080929186], [128.27398236153587, 37.1483624698997], [128.27736928585986, 37.146898925968216], [128.27847956374603, 37.14474522248932], [128.2801098834044, 37.1435674529789], [128.28494179472528, 37.14412055169099], [128.2931090300251, 37.14019877094213], [128.29651701989206, 37.13661514359967], [128.29694670313475, 37.13507043251722], [128.30509422915685, 37.13809678109826], [128.30501529948546, 37.140031533212785], [128.30835670747587, 37.143387922240116], [128.30904116596105, 37.145806075518486], [128.31102717816984, 37.14678032162774], [128.31215757008025, 37.14618803779828], [128.31645483748852, 37.1485234762287], [128.31969493935105, 37.14848355403114], [128.3218048937161, 37.15019883228369], [128.32440012337005, 37.14909480520885], [128.3271760088323, 37.153892941150545], [128.32845877785047, 37.15381425224956], [128.33086505719533, 37.1517880926327], [128.33290538453437, 37.153547406272594], [128.33397988950148, 37.15716408966063], [128.3367828991222, 37.158803168870946], [128.34078916138307, 37.159045539229865], [128.34269084550775, 37.15701608362158], [128.3454875965748, 37.15720626326544], [128.3469384380187, 37.158172212725226], [128.34790988501496, 37.15770549485881], [128.35183250122827, 37.15836035430169], [128.35983816546062, 37.15171013500902], [128.3641299329663, 37.1585886503985], [128.36598675205363, 37.158411208363155], [128.36823365460273, 37.15548652617684], [128.3695629608451, 37.15608848101445], [128.37619442414245, 37.15424428037413], [128.37709993104784, 37.15323809826138], [128.37816974379876, 37.15550056321673], [128.38232771481293, 37.157196749803006], [128.3831831032801, 37.15906405206256], [128.38457131690612, 37.15909711860793], [128.389191566197, 37.15577105225479], [128.39336233492455, 37.15562983740823], [128.3942091518355, 37.15246658588285], [128.3961126861913, 37.15120477646663], [128.3971228898622, 37.14941042969982], [128.40169831863474, 37.147442426124094], [128.4046367317302, 37.13939037447762], [128.40259626498883, 37.13774816084056], [128.40260976987057, 37.13423196133989], [128.39788285095912, 37.129424735320455], [128.40765426455656, 37.1273077640461], [128.4114977747703, 37.123072213518135], [128.4191370146049, 37.12056221960286], [128.42091602347554, 37.11844700284253], [128.42191918734636, 37.114352859973145], [128.4244987691963, 37.1125896629505], [128.42320316467192, 37.1080712986885], [128.42362607036057, 37.10498191553532], [128.42495516198275, 37.10348199029038], [128.42909895747215, 37.10446471428633], [128.42982772581783, 37.10741199317698], [128.43445481120398, 37.110027647648714], [128.43425774492056, 37.111946169354056], [128.43603029680733, 37.112986386443964], [128.44319012706288, 37.11010797413594], [128.44470502249385, 37.10826381349754], [128.45070687881795, 37.113351228821855], [128.4555522823219, 37.11281590521857], [128.4581533788102, 37.1112837376526], [128.4774576862087, 37.111144428914585], [128.4806209820802, 37.112889731933116], [128.48163496960464, 37.1156132800565], [128.48621669442636, 37.12084091908555], [128.4885248818943, 37.1217127985397], [128.49036745544598, 37.12459533104559], [128.49671765737648, 37.1267545123896], [128.50743235311066, 37.116201027966916], [128.51153490004685, 37.11458394732015], [128.5120817809967, 37.11136839759929], [128.5151058788659, 37.1041621059273], [128.5185185095577, 37.10301590648561], [128.52203396116047, 37.10407146823401], [128.52516958128422, 37.10248965799383], [128.52798525477587, 37.10248891403113], [128.53170466930126, 37.10085643337466], [128.5349549788361, 37.09868555240773], [128.53646833617833, 37.09233587464129], [128.53860545379533, 37.090559082857574], [128.54989658965505, 37.08738415320025], [128.55625291854554, 37.08815617128981], [128.56194590822875, 37.09120607316126], [128.57106883041138, 37.08731532395324], [128.57188952272634, 37.0864000472738], [128.57155604017234, 37.08512136121921], [128.57518628952246, 37.08226453139806], [128.58191528787816, 37.082657730071354], [128.58347903602373, 37.08174377793377], [128.58904237828577, 37.08090930656361], [128.59143329428176, 37.0792545928942], [128.59278825470477, 37.079480039198074], [128.59326997972823, 37.08155693458505], [128.59648882074762, 37.08333029342028], [128.6017711851415, 37.08404561463876], [128.6030095224767, 37.08216429527816], [128.60180026286147, 37.079548053941146], [128.60519778782822, 37.08031029412362], [128.60662514057773, 37.077722589285145], [128.6093865376549, 37.0807592868771], [128.61431069040052, 37.08260860721428], [128.6171491501307, 37.08600442813351], [128.62284792453647, 37.08838036787464], [128.62917990241988, 37.081764957197244], [128.6284640878421, 37.07770580521686], [128.62921578018094, 37.075703016948566], [128.63474374173987, 37.072140135895175], [128.6374366436097, 37.073256597933], [128.6395914025398, 37.07183659556892], [128.64308048656065, 37.071674591563436], [128.6529743981935, 37.065917929506995], [128.65262239204074, 37.06283006911343], [128.6468206917619, 37.060318263977386], [128.64245460928015, 37.05458404806055], [128.63887133383378, 37.051478014585], [128.63503548439692, 37.04533295429305], [128.63327440298403, 37.03956511405766], [128.6278023359733, 37.04125691849674], [128.62423451208883, 37.04443602700784], [128.6222679715325, 37.04451113982244], [128.6207821815685, 37.046382475791305], [128.6209045260965, 37.048321759735586], [128.60908250580871, 37.051287349821756], [128.60817787810367, 37.04965396623169], [128.60889715853128, 37.04718645007732], [128.60769438871094, 37.045672564401556], [128.6081066727689, 37.04365286058745], [128.60716047993162, 37.04246771962281], [128.60176200411283, 37.04308730073136], [128.59682753123678, 37.040765905342425], [128.59238439543614, 37.04088972875629], [128.5904329315953, 37.042121443520976], [128.5837294563302, 37.04262283436637], [128.5813258201537, 37.03855508212037], [128.5796159059318, 37.03762583816878], [128.578268722703, 37.03472219899881], [128.57288930668506, 37.03490047933498], [128.5686775702451, 37.033218583423384], [128.56684792541134, 37.03108820947991], [128.56783602004793, 37.02962572759546], [128.56778737948497, 37.026573174835626], [128.57329149764251, 37.02269637169609], [128.57389479402386, 37.02094698547782], [128.57219765008364, 37.015553898468475], [128.56974503754645, 37.01197260611297], [128.56437593104326, 37.00940675128236], [128.5635239912664, 37.00709534658852], [128.5566393030015, 37.004733384508995], [128.55659092197695, 36.99991284340127], [128.55534717976354, 36.99749857269694], [128.54774825576592, 36.99291944710466], [128.54604831963883, 36.993174434746265], [128.54331306046814, 36.99113405858436], [128.53567526192083, 36.98923508490254], [128.529600760985, 36.98974318869883], [128.51647775591084, 36.98590877708078], [128.51656944415703, 36.983253119314945], [128.51489076839576, 36.98032166341655], [128.5154828638409, 36.97708627339657], [128.50747840331059, 36.9725241124558], [128.50738941348624, 36.96933255495279], [128.49418466224526, 36.96348033048711], [128.4898012145336, 36.962720527880826], [128.48693597535865, 36.96132667739169], [128.48533269509988, 36.956571933309135], [128.4767530740504, 36.956311856400134], [128.46809379110056, 36.95081709045197], [128.463866069697, 36.94699384442895], [128.4643978502914, 36.94353507713839], [128.46134639924261, 36.93761387369077], [128.46108598249535, 36.93328193738577], [128.45650157806955, 36.93308166054362], [128.45311685842893, 36.92982489760637], [128.4506277266622, 36.929743649010085], [128.44315670940506, 36.92650609215414], [128.44413099602238, 36.92294514758031], [128.44386762156333, 36.92021935185522], [128.44616900337033, 36.9173128670504], [128.44569931244905, 36.91338068006516], [128.44421270471452, 36.911910917646175], [128.44120520976162, 36.90086965666094], [128.4376197346537, 36.89813641328668], [128.4368924909662, 36.89640274076862], [128.43427927199536, 36.89465064760434], [128.4325472762181, 36.89211750262762], [128.42864750007888, 36.8901832875158], [128.4278703114942, 36.88900809280715], [128.42915216976454, 36.884877254490064], [128.4285142844429, 36.88193525212197], [128.4252051510475, 36.87742288060378], [128.42814272744428, 36.8761270239423], [128.4319139936728, 36.87651684219425], [128.43889245075525, 36.87415639894758], [128.44277597000834, 36.86933302374925], [128.44395218107573, 36.869238520745114], [128.44873831658037, 36.865060438089834], [128.45012532783107, 36.86283744094883], [128.44883041895005, 36.86103621953413], [128.44892567558065, 36.85537628552102], [128.4477857905659, 36.85330196385433], [128.44918633201559, 36.85175079781099], [128.4500134353974, 36.847656553036266], [128.44815557498202, 36.845660227067455], [128.44784926072418, 36.843078366810516], [128.44352136300148, 36.83979491693027], [128.44218662074877, 36.836871760446854], [128.43521618700717, 36.83348252990838], [128.4345846192977, 36.82738945493703], [128.43291008793716, 36.82356071725604], [128.4269882928643, 36.81778366715728], [128.42601065908246, 36.814124796628114], [128.42165041519934, 36.81094493942506], [128.41563799997374, 36.81128137944554], [128.41293549926715, 36.81027554823649], [128.40814874158934, 36.81124581789835], [128.40333527589905, 36.811147489891916], [128.394318566096, 36.81384490731279], [128.38173328872907, 36.81290292700499], [128.37923732223013, 36.810293454887294], [128.37416507170332, 36.806960236383645], [128.37349964774887, 36.8047464702184], [128.36745358313374, 36.79970454041144], [128.36287457632443, 36.79973281572775], [128.3588335498843, 36.80106628015283], [128.3546674925812, 36.80357430856153], [128.3545882813449, 36.80718918928226], [128.35227112575097, 36.809068348459235], [128.33453956576975, 36.81592839265294], [128.32973670803628, 36.815171276565415], [128.32730886096002, 36.81575753491213], [128.32084565365952, 36.814640004949744], [128.3181640160656, 36.8158874860405], [128.31591629943142, 36.815815384216066], [128.31486746901575, 36.81703495541167], [128.31438042753294, 36.81952685325817], [128.31518821843366, 36.8212638290691], [128.31474758891525, 36.82229931983686], [128.3109065607801, 36.82431511875417], [128.3094366142601, 36.827628939876014], [128.30543515108445, 36.82800242665661], [128.3010283934362, 36.83181293639714], [128.2950557171232, 36.83451836674112], [128.28876456193143, 36.8428204990713], [128.28579731560083, 36.84438144354352], [128.28452634936195, 36.84712450472139], [128.28463203669574, 36.849551170835845], [128.28159550909209, 36.85549012799279], [128.2758259028809, 36.85620519877273], [128.26802459267893, 36.85949079394308], [128.26668794413482, 36.8617609340541], [128.26453461306045, 36.863228763445505], [128.2515908063462, 36.86608874490301], [128.24180513932887, 36.8711996187552], [128.2403391824003, 36.864566157371826], [128.2358392560078, 36.8621865761107], [128.23645942850547, 36.858867259337], [128.23536032327956, 36.85505720727874], [128.23970894800513, 36.85028259551042], [128.23787504111493, 36.84721909064961], [128.2376989500685, 36.84460959525005], [128.22993593388165, 36.84438799457953], [128.21353817427857, 36.84855118975692], [128.21214527960927, 36.84642665128011], [128.21171014835457, 36.8426056768761], [128.21448935090174, 36.8384611423559], [128.21547877398828, 36.83509300778723], [128.2154208883451, 36.831014984549626], [128.21679910867212, 36.828143070401715], [128.2173855661054, 36.82104081757061], [128.21831028376883, 36.81948056978538], [128.21768586432998, 36.81298063109394], [128.21562789017227, 36.81103631287649], [128.21185202315533, 36.8107131287047], [128.20694836459813, 36.81144801403851], [128.19362127956953, 36.81607465876599], [128.1883316364765, 36.81527772790486], [128.18458782160423, 36.81565530396225], [128.17125102668228, 36.82109284409813], [128.16256363890344, 36.81999435886398], [128.15833899083069, 36.821306284629394], [128.15285189096417, 36.821473188531066], [128.1498732450641, 36.82366817461215], [128.14836527058006, 36.82782172914425], [128.1436933737888, 36.829319981945986], [128.14125279633896, 36.832423625935874], [128.13476707706485, 36.83193263670521], [128.1348562115872, 36.82796751913674], [128.13030641337377, 36.82424552234369], [128.1199446359801, 36.82217177924003], [128.11867128846987, 36.82051363700966], [128.11080540267403, 36.82050071910921], [128.11078822364, 36.81554436353421], [128.10923898324083, 36.81313896595418], [128.10883269933944, 36.80873167607057], [128.10782161645955, 36.806637723508466], [128.1061770537858, 36.80500373303165], [128.1020647650078, 36.80527315699601], [128.09656009668478, 36.8027791745822], [128.0944943673802, 36.80266345356808], [128.0939485234785, 36.80231124392337], [128.09433955618334, 36.79623997334417], [128.0900020302414, 36.795639645446116], [128.08310870704395, 36.79860971270301], [128.08289081394045, 36.802463678129286], [128.0841811981449, 36.803851152731774], [128.0737940216837, 36.81203538617792], [128.06710528133908, 36.81573033448196], [128.06441076917594, 36.81638646412305], [128.06027306071755, 36.815908092465094], [128.0601839273164, 36.8132126191494], [128.05846472792697, 36.81100777426828], [128.05886591590436, 36.80661283096187], [128.0552908412579, 36.80511628147364], [128.0571251372472, 36.79847960848927], [128.05589429440442, 36.79226288166904], [128.05207222697862, 36.788347900496184], [128.04949388697807, 36.78294037243604], [128.04660284260117, 36.78181961148833], [128.04790434720363, 36.77852765485116], [128.0457504457714, 36.77448248469803], [128.04573631402744, 36.770688007253554], [128.04211100075196, 36.76742499817631], [128.03818411603476, 36.76047405791729], [128.03332743882825, 36.75468587257107], [128.0334098005139, 36.74801995664191], [128.04299062549822, 36.741471758638184], [128.05131104695437, 36.737515443909366], [128.05595741716667, 36.73140969189051], [128.05777601574314, 36.73193086910822], [128.0613554360803, 36.727617964105235], [128.06872402476486, 36.72291072828839], [128.06902767880675, 36.720934294930885], [128.0723807614545, 36.716057944012235], [128.07370853580701, 36.712058649815496], [128.07100206088933, 36.70691886313172], [128.05866833261118, 36.70794921051736], [128.05224903979908, 36.706764887429614], [128.0486344697893, 36.70708735964668], [128.0429444745633, 36.711423987082185], [128.03421905866279, 36.71526846242339], [128.03125635840755, 36.7179856140573], [128.02552210482412, 36.718096647069665], [128.02040489934748, 36.721073936499266], [128.01852381582955, 36.72319733988997], [128.01849831560918, 36.72468882989991], [128.01431092012075, 36.729178873299276], [128.01018141640503, 36.727713210042026], [128.0023203800985, 36.71633246422311], [127.99910635573252, 36.71642357819909], [127.99720740352906, 36.71728933689089], [127.99027261274408, 36.7162239565719], [127.98662619078458, 36.71657420991598], [127.97964996368356, 36.71928190853447], [127.97238032540406, 36.72555217716899], [127.9700519926747, 36.73013071556593], [127.96266523594812, 36.73251534100209], [127.9601605304214, 36.7360340213705], [127.95892392798254, 36.73588736217332], [127.9562500911241, 36.731623490835744], [127.95633061270486, 36.729333560615316], [127.95545012515987, 36.728078329817066], [127.95583499570499, 36.727013998986244], [127.95448860773917, 36.72220849487159], [127.95205819423853, 36.71982197183642], [127.95027769861855, 36.71926573471087], [127.95036984111307, 36.70751031862548], [127.94659506110699, 36.70521923457531], [127.93802892149778, 36.70586519089914], [127.93389623805959, 36.70495419275046], [127.9318742314806, 36.701300822938606], [127.93254394461954, 36.69413122944495], [127.92947448637074, 36.690007141170796], [127.92625845725826, 36.689350547044924], [127.92238443308555, 36.69114247461669], [127.91783740650831, 36.69144169151143], [127.91572996283935, 36.69298570801342], [127.91290441098847, 36.691665780273134], [127.90931960150895, 36.69227279113421], [127.90735909394681, 36.69159042367092], [127.90368097006008, 36.692608032251414], [127.89797852483544, 36.69213975704541], [127.89543285361846, 36.693567029116664], [127.89467548983161, 36.691289085941705], [127.88883757155007, 36.69088503404993], [127.8863795926012, 36.68741188234087], [127.88249075927678, 36.68681051120272], [127.88276081157709, 36.682812587948185], [127.87786261981184, 36.68138698939469], [127.88018612276196, 36.67972636555888], [127.8818902770495, 36.681016977939265], [127.88750441292488, 36.67977185384262], [127.88886970781891, 36.681880280233415], [127.89121977935412, 36.68340376210795], [127.89518049155394, 36.68209382115144], [127.9006815302027, 36.68315384746594], [127.9019492156365, 36.68153292629014], [127.9087851702231, 36.68045886695573], [127.91058184156333, 36.67887672378033], [127.91355753960646, 36.678478995579965], [127.91843563013973, 36.66891661538512], [127.92022690782608, 36.66957302658692], [127.92986400837832, 36.66972142411449], [127.93078092638348, 36.66710437431575], [127.93306798492857, 36.66503847561521], [127.93263181433815, 36.65586544780534], [127.93450003541854, 36.654273525902056], [127.93986800006368, 36.65336608060593], [127.94020185250379, 36.64694049997233], [127.93971070311494, 36.645287322309244], [127.93662108063769, 36.643555667575235], [127.93530445377075, 36.64085977152028], [127.93476864434709, 36.63649867559577], [127.93608043793401, 36.63544128066197], [127.93695103071136, 36.63289917774925], [127.93381752937468, 36.62838175175517], [127.93245980695868, 36.624294778343874], [127.93387200296041, 36.62054743558712], [127.9332943254138, 36.61834496172603], [127.9288972744093, 36.61611607719003], [127.92513150394329, 36.61528019175779], [127.925248990613, 36.6099622215515], [127.92603017180132, 36.6043688905194], [127.92717439736317, 36.603192267267474], [127.92685152875, 36.602215108303305], [127.92421051616203, 36.601051799675574], [127.91920229658307, 36.60046791346187], [127.91773820328324, 36.60325111846332], [127.91773570833159, 36.60837355800914], [127.91092214939279, 36.61406382009018], [127.90766152401554, 36.62194263318657], [127.90800287154288, 36.624990502760355], [127.90551297732922, 36.62494774783975], [127.90218424944648, 36.62659272838861], [127.8967709076991, 36.62530653648967], [127.8883322218156, 36.62821360644229], [127.88696819277843, 36.630439869195094], [127.88707244668714, 36.63288798828761], [127.88623959471458, 36.63445506700095], [127.88766292898606, 36.6369582281055], [127.88775794594758, 36.63931071584458], [127.88418453840792, 36.64153761912854], [127.88109708188429, 36.64597759535391], [127.87893565671212, 36.65562918097918], [127.87653335749756, 36.65540231963236], [127.87482377932173, 36.654325112732046], [127.87316610938787, 36.6496975759145], [127.87101961423643, 36.64818607161579], [127.87094192745116, 36.64493733186607], [127.8681421080414, 36.64338913040906], [127.86604559794341, 36.640514439087305], [127.86435439512114, 36.63990710180128], [127.86398659481782, 36.63727200087682], [127.86188100254894, 36.634758570241125], [127.85669165013458, 36.63347209406754], [127.8522292284938, 36.63420769087423], [127.8489953853011, 36.633581127994205], [127.8515474130774, 36.631422746883956], [127.85153523428218, 36.62880605752719], [127.84887141020636, 36.62477533652932], [127.85074349926047, 36.62154093286546], [127.85081150179454, 36.619928488450846], [127.85636806757216, 36.61834668519185], [127.85921042181211, 36.61395345256879], [127.85887773713686, 36.612714321485704], [127.85524965416106, 36.61087870990636], [127.85007191843596, 36.612149791656584], [127.84771936794499, 36.610227789055195], [127.84077143541786, 36.60729770410137], [127.83721652230703, 36.60847493644427], [127.83215711541891, 36.611597078232606], [127.83030189403203, 36.611602635407245], [127.82755285408085, 36.609767796404704], [127.82230260614024, 36.61143674209681], [127.81899962376662, 36.60739933007063], [127.81229270983305, 36.606479594126874], [127.80904153407866, 36.60495535473324], [127.80693314706444, 36.60275964118806], [127.80221031365352, 36.60088115929199], [127.79929979160772, 36.60134243041935], [127.798144519814, 36.59985250522217], [127.79766860057292, 36.59275517425863], [127.80032446462411, 36.58985621969917], [127.80096627753558, 36.586324256731366], [127.80475545131343, 36.58435779941974], [127.80547805139142, 36.58251534150155], [127.81268188213834, 36.58060942604126], [127.81450477639349, 36.57907814055028], [127.8167290342776, 36.57859695177749], [127.8180191739843, 36.57661294433953], [127.82484331232223, 36.57184914786903], [127.82625578991492, 36.57248961145949], [127.82721551601553, 36.57440411971294], [127.83037321018692, 36.5751944553163], [127.83405453010631, 36.57386035498669], [127.8367933958782, 36.571412115972045], [127.84130172363884, 36.57152195875262], [127.84245207976568, 36.57052683680331], [127.84879611730626, 36.57253672302451], [127.85305635140008, 36.57266219047619], [127.85535491054561, 36.57059050280094], [127.86017197093992, 36.569969181216685], [127.86850868283794, 36.56409900840239], [127.8696263527565, 36.56181072157538], [127.87435164540892, 36.55686295292818], [127.87465513901326, 36.55502987342492], [127.87274496335294, 36.54976570719719], [127.87309065234153, 36.545318951713135], [127.87218076551572, 36.543440384072724], [127.874612682645, 36.541680478936776], [127.87457154704752, 36.538394078577866], [127.87758402399275, 36.53652905616037], [127.88326996309202, 36.53641254700586], [127.8843870720897, 36.53519290458877], [127.88847936711078, 36.53418156717261], [127.89325065027069, 36.53105780810691], [127.89735569381014, 36.5316568268567], [127.90255385324876, 36.528813644535646], [127.9030719955151, 36.52706827856404], [127.90166740446094, 36.52503215414376], [127.90291905034952, 36.521081934770905], [127.90231208587143, 36.51908876407866], [127.90376001750911, 36.517465265543144], [127.90331733466464, 36.5131992838424], [127.90704928279527, 36.508201354323525], [127.89842477642388, 36.49846644227234], [127.88965862892555, 36.49288679072819], [127.87905202963456, 36.488524033731316], [127.87693613740966, 36.48656770943824], [127.8770396189469, 36.48375362641247], [127.88128193036995, 36.48145170211869], [127.88295285767602, 36.47772583430433], [127.8831974783868, 36.47584110741285], [127.88189932674571, 36.47417931656165], [127.88268063910553, 36.47217316224522], [127.88176461210664, 36.470337423100425], [127.88189647146781, 36.46817059414728], [127.87974630652087, 36.466817494007834], [127.88332665846667, 36.461248386004435], [127.88031649349726, 36.456340077477854], [127.88070449227631, 36.45429408024282], [127.8785697212522, 36.44938771163982], [127.87755138632288, 36.448230841478264], [127.87548404214871, 36.44780610620769], [127.87437106794907, 36.44246519042417], [127.87528227567368, 36.44053600765766], [127.87450106110754, 36.436719710881356], [127.87582883255595, 36.43364388245832], [127.87595127244516, 36.43051877197756], [127.87884846125081, 36.4302637641768], [127.88107881315874, 36.42843277186805], [127.88370135242137, 36.425011279178264], [127.88365816546009, 36.421460053869495], [127.87986037329965, 36.41561253570887], [127.87680279044952, 36.413729721331414], [127.8767609033656, 36.41133054808357], [127.87452257127093, 36.4087412248868], [127.87433396631656, 36.40640701708734], [127.87321347298824, 36.40450992724331], [127.86956596611454, 36.402470076476256], [127.86512076413388, 36.40211702148806], [127.86495570096427, 36.39999024284032], [127.86597791748851, 36.39854169280549], [127.86576763429815, 36.39647273693983], [127.86718158308501, 36.39283175273543], [127.87614794746685, 36.39177083565223], [127.879536714339, 36.38726459695136], [127.88014857186916, 36.38399549062977], [127.88523330303352, 36.380245306591824], [127.884198707865, 36.377385536162066], [127.88430732427591, 36.37450423358569], [127.8824149800093, 36.371996467652586], [127.88550938418562, 36.37122918797842], [127.8873390659063, 36.36377610214758], [127.891395693425, 36.36124245650751], [127.89219774518912, 36.358077623310656], [127.89157246158516, 36.35581292871668], [127.88671652822363, 36.35386874531662], [127.88601668571033, 36.34855400914498], [127.88432323706475, 36.347828548070524], [127.88273066839196, 36.34480419683843], [127.87924741054492, 36.343822686465955], [127.87662467436344, 36.344485870309676], [127.87372610302339, 36.344115326634665], [127.87121004770239, 36.34290424639635], [127.8715461001041, 36.34172296747216], [127.8706499299153, 36.33911060050048], [127.86798941732347, 36.33600714855356], [127.86462349418652, 36.33450934862344], [127.86273081501349, 36.335125740864946], [127.86237783594684, 36.33401001666644], [127.86079941374643, 36.333561565753165], [127.85638888819992, 36.329914113235986], [127.85345519950647, 36.330062152457074], [127.85184160297578, 36.320732702810574], [127.84884226134668, 36.31795409686967], [127.84661957871613, 36.31701093212001], [127.84602828436157, 36.31287624881801], [127.84345454197339, 36.31150883264115], [127.8424133957605, 36.30963266982147], [127.84817720946367, 36.301279967925744], [127.84808492412596, 36.29775124683423], [127.84665897229767, 36.29548742482289], [127.84798293809585, 36.29202457380669], [127.85054221197448, 36.28958915894135], [127.85122504066517, 36.2839196479336], [127.85071090000001, 36.28060110158441], [127.85174791974995, 36.27916196771508], [127.852349812883, 36.27507994430316], [127.85631158117609, 36.27805346375942], [127.86086962597439, 36.27817092860944], [127.86477262647838, 36.2768869682189], [127.869658, 36.278249699999996], [127.88363539999999, 36.27513116428203], [127.88425208910856, 36.27705803368839], [127.88670784048534, 36.27908752508578], [127.88859782554951, 36.288386636775314], [127.89107738850339, 36.29270532149745], [127.89346629765534, 36.293912962066415], [127.90208689993766, 36.302390724290824], [127.90510540233578, 36.30341206366953], [127.9065265481405, 36.30218814889119], [127.90721627594385, 36.29041218657285], [127.9079999806489, 36.28914789687809], [127.90793163293736, 36.28665853557123], [127.90879933631842, 36.28581946001592], [127.91360661439188, 36.28279000616347], [127.92254565675178, 36.279987273046466], [127.92533337406607, 36.2805481082787], [127.93029936093907, 36.27920232673097], [127.93423607206425, 36.27695878260571], [127.93539420511361, 36.273532058987385], [127.93757298386862, 36.27192371067973], [127.93866237486675, 36.26997839405857], [127.94300775413107, 36.267947848068985], [127.947905015902, 36.26793200723837], [127.94942051803844, 36.26345482977111], [127.94887450646338, 36.262150056979955], [127.94965560684773, 36.25769289942083], [127.95518176685057, 36.25810403677887], [127.96077966384583, 36.253412168082214], [127.96476796765367, 36.25440632687801], [127.96846850114902, 36.251550169323934], [127.97008019612049, 36.251681723738805], [127.97181268333584, 36.25342641337708], [127.97775147598082, 36.25514785985404], [127.9759769889982, 36.25770789915552], [127.97585759202903, 36.25932211508427], [127.97689725358417, 36.261239761802905], [127.98080252045673, 36.264360892142264], [127.98417597620231, 36.263755793761106], [127.9872260809248, 36.264789573664146], [127.99040969870899, 36.264456322420216], [127.99107811419456, 36.265970037129264], [127.99409479497676, 36.26842118437299], [127.9982864933894, 36.26933533030682], [128.00039919843505, 36.267733097800104], [128.00375625057674, 36.27071721813175], [128.00992859635494, 36.27339180219808], [128.0142473767195, 36.2712939956859], [128.01608299968515, 36.269228336860465], [128.0202873923709, 36.26834190279776], [128.02647190178243, 36.2690700396819], [128.02774021234683, 36.266009040279236], [128.03034502878052, 36.26521204743602], [128.0320337125649, 36.26308823716679], [128.03758339406988, 36.26078632726194], [128.0440107504136, 36.26022859282209], [128.04876668818616, 36.25767765565797], [128.04462145845656, 36.2515211604203], [128.04023506235808, 36.2505134693171], [128.03795449384714, 36.2466727129142], [128.0362789015483, 36.24560361863699], [128.03603311720414, 36.2428530348037], [128.03378050873667, 36.24087690251748], [128.03141888188418, 36.24009532160516], [128.0340012756496, 36.23435912401115], [128.0357037403282, 36.23371399971163], [128.0376564103468, 36.23086800114409], [128.03952706153277, 36.230303305562295], [128.04057718923764, 36.22881337874065], [128.04042632529203, 36.22661720516622], [128.04150335851068, 36.22480329581456], [128.0400812970194, 36.222391531214306], [128.0430200091786, 36.21813489623887], [128.04741459250192, 36.217137221088535], [128.04940796393765, 36.21743429629473], [128.05093377798676, 36.216594736743936], [128.05040084321075, 36.210683003342574], [128.0515356639023, 36.206629486821946], [128.05539276752305, 36.2034433770652], [128.0591782554269, 36.2026105276612], [128.05982222554402, 36.20058702957675], [128.05795990844703, 36.1998853723761], [128.0524548599786, 36.19989307949031], [128.04492976761426, 36.19541863579767], [128.04231462567012, 36.195360028142595], [128.04096663502253, 36.19395915331165], [128.03795211024996, 36.193435276374316], [128.03298609425244, 36.19916076179184], [128.03133786952142, 36.1996127776792], [128.03015724304362, 36.20108142415056], [128.02765350527048, 36.20169480720281], [128.02533806958297, 36.20495905942566], [128.0184895788708, 36.20718605608232], [128.00998951672742, 36.20835060618035], [128.00634126656917, 36.206148953412395], [128.00333977679358, 36.20654703431682], [127.99734266604125, 36.205164488956385], [127.99575105320844, 36.20396522727383], [127.9932551938045, 36.19925220408157], [127.98963571665494, 36.19861309645848], [127.98630498847939, 36.19947214131577], [127.98191636989203, 36.19745551865443], [127.98237396292454, 36.195442604495106], [127.97699702848213, 36.19165366879501], [127.97667885289707, 36.18800029553891], [127.98113998383329, 36.18330506151548], [127.98241798192085, 36.17985950901527], [127.9846280357443, 36.179038960077854], [127.98561567616468, 36.177703392353095], [127.98399111543971, 36.17245701310637], [127.98440495551196, 36.170744253935105], [127.98754911702679, 36.16786090680701], [127.99086038359658, 36.16649511371517], [127.99057766754855, 36.164052574723385], [127.99150687948293, 36.15979430009336], [127.99621332937166, 36.158055935584464], [127.99800627941764, 36.15504074622379], [127.99578238606325, 36.15226865435116], [127.99216458108255, 36.15076565304732], [127.99065700859263, 36.148470182514245], [127.9884446938188, 36.146986804733494], [127.98987235353546, 36.1441895974418], [127.98818784118922, 36.14049051087002], [127.98874786426562, 36.13838391205224], [127.98825377015746, 36.13733112498659], [127.98959688944979, 36.13278883536233], [127.98781006460204, 36.128098238135195], [127.98258993464825, 36.123950050843156], [127.9799493318483, 36.12356817574216], [127.9773986536918, 36.12098585798238], [127.9739620150868, 36.11955785854042], [127.97051962552494, 36.11945615031208], [127.96789165438541, 36.117960979712315], [127.96809335980073, 36.1098620878156], [127.96934937464769, 36.10703995571552], [127.96662204706377, 36.1020436937936], [127.96388782035665, 36.09911378681124], [127.96364135060763, 36.09639966838237], [127.9623725208695, 36.09526406341013], [127.9588879068258, 36.094303123300335], [127.95860348924082, 36.091119335180196], [127.9594822106827, 36.08845211317694], [127.96268130904505, 36.08289629795628], [127.9617428638715, 36.079464804935476], [127.9629689, 36.0776496], [127.96190992378361, 36.06851923702009], [127.95346350387011, 36.06534512108678], [127.95101858198203, 36.06033720979794], [127.9477926467577, 36.05769545130908], [127.94696296681879, 36.05601304627157], [127.94322389271062, 36.055223006586125], [127.93755970920468, 36.050631749917066], [127.93160894367853, 36.049276276460596], [127.92552802948775, 36.05259093614718], [127.9170449828882, 36.053886276263604], [127.91334579680876, 36.05033408967305], [127.91039178766582, 36.04938005545839], [127.9065780053833, 36.04564352636787], [127.90506286631721, 36.04310351342533], [127.90485981228169, 36.03988135919423], [127.90390382692176, 36.03827976501044], [127.89968452491848, 36.03750809584254], [127.89765049546247, 36.03620440520199], [127.89426569392383, 36.03662768879265], [127.88881128633683, 36.03400239452342], [127.88598375577553, 36.03475521873884], [127.88485100169471, 36.03144902199256], [127.8848263651958, 36.027755671170766], [127.88085326819855, 36.02332257259567], [127.87699766805117, 36.02153720351321], [127.86566908056156, 36.02341235074346], [127.86356898166709, 36.02504919631923], [127.86272966081506, 36.027368770210124], [127.85986801546898, 36.03070667151163], [127.85493564137948, 36.03224248512408], [127.85212246368262, 36.03814465115249], [127.84828733286837, 36.038589266700946], [127.83933163809618, 36.034907686549126], [127.83111691248146, 36.03437518221803], [127.83003204906339, 36.033122597742896], [127.8200449218045, 36.028715787625565], [127.81875719473764, 36.02716303703455], [127.8161052797467, 36.027108204575946], [127.81478109395206, 36.02786072932798], [127.80946014298829, 36.02596273628448], [127.8081117947499, 36.02637094002792], [127.80564988370018, 36.02496838121128], [127.79986041317395, 36.025142651275644], [127.79837285371505, 36.02444661937335], [127.79763204758275, 36.0223056874213], [127.7947698639692, 36.0205360145591], [127.79427008298605, 36.019204151677215], [127.79114422642871, 36.01768417358027], [127.78793934452207, 36.01355680039566], [127.78160515510702, 36.01551027794649], [127.77604809379517, 36.0145122698096], [127.77012743510032, 36.011916784401976], [127.76609786535367, 36.01121039644736], [127.76113568639826, 36.01241718219061], [127.75843413366542, 36.014589093932585], [127.75835702802374, 36.016287656946055], [127.76161049643429, 36.02177331372484], [127.76093753003987, 36.024349569825155], [127.75352439238229, 36.023113523371514], [127.74746504593764, 36.02867680073252], [127.74459184650783, 36.0278563317493], [127.74328092473462, 36.02464510902197], [127.74136779776455, 36.023808315554895], [127.73872837118613, 36.02504107110793], [127.73649208982539, 36.02924581326808], [127.73441240037906, 36.03135466465624], [127.73107375641003, 36.03133403400194], [127.72745398892388, 36.02870683126855], [127.72621025907704, 36.030810939363036], [127.72505890468715, 36.03127639375057], [127.72352281465147, 36.03030632598301], [127.71885336664265, 36.03091971203783], [127.71684140477724, 36.03357838007423], [127.71317508557914, 36.03474883910801], [127.70738978762246, 36.03413181153778], [127.70569858038525, 36.03299490041257], [127.70138872136714, 36.034427086096535], [127.69941963196912, 36.03598477320183], [127.69876699058061, 36.03811719549063], [127.69551807028454, 36.040769325147046], [127.69402339320199, 36.04581040721302], [127.69412628659919, 36.04985606813083], [127.69497497951804, 36.051122081718944], [127.69420480481777, 36.05258964467801], [127.69480877385234, 36.0540166100112], [127.69394408572353, 36.05726184889825], [127.69013703165861, 36.057233677735766], [127.68803722862185, 36.06158489853459], [127.68600706983507, 36.06129283194289], [127.67774981930047, 36.054690467392675], [127.67588838825621, 36.054852083987456], [127.67048345671259, 36.050658374968386], [127.67276358868297, 36.048798205782994], [127.67163203861634, 36.04485605323648], [127.67359345792467, 36.04242071246221], [127.67363907531332, 36.041201670713924], [127.66952190251793, 36.03776904753745], [127.66435225401409, 36.03651244066182], [127.66208808064316, 36.03755586667722], [127.66052467552267, 36.03726633941566], [127.65860223878077, 36.039061093873876], [127.65875221274425, 36.041957790861105], [127.65750685664926, 36.04412484601636], [127.65699126150707, 36.047295912385685], [127.65377276981447, 36.05224311534031], [127.6540129277589, 36.05442297335124], [127.65245694633549, 36.05611876027647], [127.64828520779041, 36.05734866046763], [127.6474699168374, 36.06222149095035], [127.64388554385167, 36.06599479358923], [127.63969659074408, 36.06732127657316], [127.63806535970224, 36.0656747051264], [127.63573878307724, 36.06640912642034], [127.62930887587727, 36.065529962091375], [127.62401259996378, 36.06623678450378], [127.62156145936655, 36.06384502297097], [127.62157668859417, 36.059431459795455], [127.6206924575151, 36.058332478197045], [127.61965498876447, 36.05250001915199], [127.61953857041472, 36.05018122235078], [127.62067309349327, 36.04733139258679], [127.62001518665345, 36.041547113499156], [127.62092344085971, 36.041027479784084], [127.62551401388245, 36.04323897302456], [127.63044338417976, 36.04259503450957], [127.63249423198764, 36.04018332948058], [127.63243991595425, 36.036383161844704], [127.63319849188856, 36.0356468756259], [127.63791427272547, 36.0356763727701], [127.63963623429696, 36.034843333652084], [127.64179903273289, 36.03052447143391], [127.64567681302523, 36.027218680996036], [127.65147699855623, 36.027796383760894], [127.65687583383657, 36.02626959380246], [127.65923514196237, 36.02420557625672], [127.6596108707164, 36.02230618605975], [127.65883754319175, 36.019407024016175], [127.6572600788598, 36.01791407517049], [127.65236926273421, 36.01596763121136], [127.6472737121733, 36.0162052150176], [127.64083724411527, 36.01779426914769], [127.63722038152414, 36.02022745663735], [127.63498350559033, 36.022955368546434], [127.63406565031619, 36.029318296725414], [127.62987056172, 36.031783254808516], [127.62850329054659, 36.03117939875727], [127.62842611130333, 36.02597735919448], [127.6252857552522, 36.02356776755193], [127.62271216798734, 36.023370042093646], [127.61753306737042, 36.0258708248354], [127.61066771540631, 36.02466718064385], [127.61089968608962, 36.02360128489975], [127.61335774804486, 36.022713215350265], [127.61777792260997, 36.01902854180931], [127.61858482144481, 36.01215286327407], [127.62009608194148, 36.008086357817916], [127.61999457413492, 36.002009746164475], [127.61836534584047, 35.99883347517929], [127.61884828249853, 35.995944606599174], [127.6177984203745, 35.98881738455857], [127.61640571852669, 35.98734719792744], [127.60994574202917, 35.98588286933009], [127.60691309967181, 35.986990678574], [127.60503994043488, 35.98943526649694], [127.60469159871138, 35.991705608541956], [127.6069308407033, 35.99643473294255], [127.60789092786166, 36.00192770572167], [127.60670756201378, 36.004364026970464], [127.60366107872056, 36.005682478428994], [127.60318431630814, 36.00659937086551], [127.60350228550224, 36.00797765552602], [127.60617829846711, 36.00988729752264], [127.60575122487924, 36.01084590747845], [127.5993929652939, 36.01107887471581], [127.59906145145116, 36.01310109715406], [127.59557234273665, 36.018144354540084], [127.59066474643768, 36.02050212695129], [127.59026671639027, 36.02456950048137], [127.58269468152098, 36.02614574763909], [127.57875272156066, 36.023179951925385], [127.57427499686568, 36.02233617585698], [127.56608182247912, 36.030237521645454], [127.56222983888914, 36.029748567094856], [127.55885934918898, 36.0323900846441], [127.55548404960493, 36.03142371609734], [127.55193127780473, 36.03180833729635], [127.54702631409805, 36.03706918504206], [127.54516258802214, 36.03671503141538], [127.54396262320599, 36.037697941178116], [127.54083811079812, 36.03713366959187], [127.53871607925119, 36.03775223345521], [127.53768508788247, 36.03896611223699], [127.53209967481953, 36.039839793652504], [127.53314660604583, 36.035203435914006], [127.53602272754222, 36.03492189455483], [127.53845036741835, 36.033015718952996], [127.53786376716627, 36.0311413197422], [127.53838798478259, 36.02759639996812], [127.5398382042933, 36.025962741567064], [127.53902539227727, 36.02322007434433], [127.53722113493825, 36.020962340270806], [127.53884046801161, 36.01892662788265], [127.53867358686252, 36.01545162549164], [127.54081487771727, 36.01138879998401], [127.53911756299576, 36.00964392000683], [127.5369087179648, 36.00961364024065], [127.53321856987236, 36.007775741137], [127.53508456549618, 36.00547029406219], [127.53707807612624, 36.0007712700246], [127.53765456235658, 35.99641219762053], [127.53668700390975, 35.99433022669686], [127.53494598701771, 35.99320968143978], [127.53416840907684, 35.99115844787008], [127.52947962385956, 35.98936540256702], [127.52493182119741, 35.98420468518325], [127.52158679880897, 35.98383489509366], [127.52012183699185, 35.98229042105676], [127.51389841775558, 35.982306475465066], [127.51074245069367, 35.98115561801734], [127.50937951704778, 35.978909768404385], [127.50652659417979, 35.97863158924051], [127.50392942033561, 35.98166602638122], [127.50179028495958, 35.98288971147647], [127.50136643621312, 35.98526874897518], [127.49904657181013, 35.986241333525236], [127.49507061625023, 35.98536492595289], [127.49361779169317, 35.98308029636167], [127.49121464478442, 35.981795109973184], [127.49000621808312, 35.97868598076866], [127.48763657944542, 35.977268232726274], [127.48494296665592, 35.97887992929649], [127.4755280158497, 35.97967058513807], [127.47147012299571, 35.982731092113895], [127.47069967566308, 35.984437358394636], [127.46793443019457, 35.98688763434908], [127.46654136006525, 35.98699121414768], [127.46571419766421, 35.984447062785755], [127.46424224668228, 35.982990823231745], [127.45964097388017, 35.98324625491247], [127.45670216713778, 35.982277152366834], [127.45507494932781, 35.98311846153805], [127.45385141331596, 35.98477325352074], [127.45390288007776, 35.98654889264546], [127.45118575130634, 35.98833097891021], [127.4505520264932, 35.98996543724303], [127.44769790412316, 35.99273102304048], [127.44804743357075, 35.995018027145754], [127.44672415803275, 35.99714037363088], [127.44703367399666, 35.99873851898], [127.44319748279206, 36.00326367803946], [127.4436485283964, 36.006625331829206], [127.44001762668039, 36.006998932130585], [127.43634935610181, 36.00888412171587], [127.4361540500356, 36.01163003419268], [127.4345042483965, 36.01305197082596], [127.43419038198557, 36.014660812056796], [127.43628628752616, 36.02056016453149], [127.43592481422421, 36.02219381614035], [127.43334385154957, 36.02403578293482], [127.4337212646554, 36.02794432218023], [127.42800054673403, 36.0260989601], [127.42347431529944, 36.02253096539698], [127.42012338931443, 36.02180164439747], [127.41397719776111, 36.01433586602783], [127.40937555406069, 36.012738941830214], [127.40759222771933, 36.0131922080488], [127.40380023049285, 36.00912683803296], [127.40129973059334, 36.007738863549406], [127.39936589941027, 36.00912884761943], [127.39613257446308, 36.00994304669251], [127.39325176020293, 36.01279375850203], [127.3917387569025, 36.0158635768178], [127.38923814174231, 36.01529482054311], [127.38734431553078, 36.01759202593359], [127.38477484358091, 36.01847840156744], [127.38308058657412, 36.020393239660756], [127.3792943826504, 36.02088871684334], [127.37689623653051, 36.02209627393118], [127.37691970635832, 36.028457858517726], [127.37805139765305, 36.029869275944755], [127.37378477438966, 36.03415197982007], [127.37247538522075, 36.043020095003676], [127.36693118470785, 36.04683118321941], [127.36465746328835, 36.05052539659207], [127.36050227646551, 36.05328108205062], [127.3596867527527, 36.05513448315943], [127.36079067568362, 36.05941513366313], [127.3598620552367, 36.061630201545455], [127.36106886638092, 36.063882588209054], [127.36364254952207, 36.06612987924083], [127.36320938782872, 36.06713495995087], [127.35984398543977, 36.06782265939726], [127.35840976472684, 36.069836312855976], [127.3587484928173, 36.072374772636], [127.36088542484404, 36.07557094960693], [127.36017047463778, 36.07802769726556], [127.355884163065, 36.081431985836076], [127.35672916115988, 36.08766278136863], [127.35893424369522, 36.08903254801063], [127.3558377007518, 36.091389791719465], [127.35062959219518, 36.0929940007275], [127.34695899248396, 36.098055256513994], [127.34903356374481, 36.10108187229084], [127.34998181394624, 36.1056991237147], [127.35337936433298, 36.107098558101136], [127.35415205582318, 36.10867719418108], [127.35264189872014, 36.110522401200264], [127.35254953465119, 36.112829259557905], [127.35028730519286, 36.11534351139259], [127.343958723001, 36.117588170229226], [127.33996792100265, 36.124349140483986], [127.33899276360025, 36.128564358277295], [127.33754436376572, 36.129682733133755], [127.33526427114849, 36.1286968475189], [127.33097473494574, 36.12858530422873], [127.32696073158957, 36.12986579874799], [127.32473226191863, 36.12945284494478], [127.32332874521542, 36.1247816656129], [127.31943640174256, 36.12318743105737], [127.31838173512703, 36.11967146323484], [127.31500247818543, 36.117615621922894], [127.31001168544289, 36.119354180478695], [127.30636120783868, 36.12411382507711], [127.30307130063774, 36.12393176692377], [127.30149333141055, 36.12245474139522], [127.29723819278993, 36.1212695092927], [127.29736486200096, 36.11786548908621], [127.29640603417472, 36.116820920253566], [127.29597344288321, 36.11340915191094], [127.29439850708782, 36.111376930593906], [127.2898793935181, 36.110983113688114], [127.28762137677167, 36.111849483519535], [127.28489521756667, 36.111273051298866], [127.27473016873567, 36.10546715274693], [127.27195415721548, 36.10529037370175], [127.2676990305802, 36.10723805580702], [127.26539777556299, 36.106815522633326], [127.26296249734452, 36.107958294841055], [127.25947961720931, 36.1115552592471], [127.25899560920956, 36.10988930059817], [127.25668951620082, 36.10822356688833], [127.25339856436094, 36.108330392400795], [127.25219138299538, 36.1090881846776], [127.2509157998776, 36.10585439118058], [127.24710787598346, 36.10336275434579], [127.2480089627442, 36.09887281223065], [127.24777170126161, 36.09517896024649], [127.25592815491954, 36.08985850036341], [127.2578824441662, 36.08759263285785], [127.25642769051312, 36.08379627213707], [127.25111076486733, 36.08154969301322], [127.2493235083697, 36.081187185607725], [127.24294824736405, 36.08366543203558], [127.23776914770666, 36.088105261666094], [127.2345107431244, 36.09292852071046], [127.22587949070017, 36.0980335743235], [127.22037905470233, 36.096173189998254], [127.21368114427129, 36.09723118879591], [127.21160520725206, 36.09960845363253], [127.20596028684427, 36.09939179738287], [127.20494207761827, 36.09756836910437], [127.20473469015131, 36.09334084339385], [127.20163652459398, 36.09123705304775], [127.20287779069051, 36.089089366054395], [127.20259702791316, 36.08727550247387], [127.1996399559698, 36.085161352872085], [127.1968041502901, 36.08553573028115], [127.19429149532368, 36.084881408386586], [127.18987234712411, 36.08719653478203], [127.18721265349853, 36.09111935488057], [127.18225131121595, 36.09364901602283], [127.18036499258966, 36.09348814591958], [127.17858967691984, 36.090278148407464], [127.17446651372914, 36.08690681025332], [127.170985258469, 36.08518224803987], [127.17086824589894, 36.08369497987456], [127.16941569602777, 36.08300704519471], [127.1645995683097, 36.08432368671808], [127.15850491973262, 36.08245613745304], [127.15216171075372, 36.08499167477193], [127.15082318726097, 36.089023500339096], [127.14598475063754, 36.08941520170242], [127.14181859678116, 36.08614571814773], [127.1402490348908, 36.08650689931422], [127.13829583778157, 36.085552749373036], [127.13489404307754, 36.08154927078208], [127.1351285919876, 36.07018851149397], [127.13318361780108, 36.066217343924556], [127.13141875133644, 36.064836969831525], [127.12379250114299, 36.06330664981387], [127.12202617159437, 36.062033529614645], [127.11758645543192, 36.06626364546099], [127.11212014976815, 36.06840069699593], [127.10861611350711, 36.071548860224596], [127.10581948889585, 36.0710591983532], [127.10182726244228, 36.074645169134165], [127.09516473342508, 36.07232704459026], [127.09384346474465, 36.07244616059227], [127.09292633764925, 36.07381681472254], [127.0910560570226, 36.071063558955146], [127.08995701439062, 36.07089441028748], [127.08739979900132, 36.07340969529961], [127.08699061872348, 36.074829012959526], [127.08171810367598, 36.076919648164996], [127.07906918179982, 36.08020359022452], [127.07666028341288, 36.08124532388005], [127.07520752275181, 36.08389496287338], [127.07131527011829, 36.08371196078765], [127.0694587816426, 36.08673021724097], [127.06497940563496, 36.08879270763202], [127.06373009814857, 36.08807238369366], [127.06015391676527, 36.088370613737304], [127.06002412406046, 36.0895300705709], [127.06175786466675, 36.09155784249932], [127.05966599529708, 36.09329738058832], [127.05921446902889, 36.094630123581844], [127.06014882721789, 36.099427808079334], [127.05933833417232, 36.10041374389168], [127.05963052193844, 36.1048815866077], [127.05685349570533, 36.10674557484731], [127.05774179032186, 36.110127561043264], [127.05600624687288, 36.112812406324146], [127.05596530751785, 36.115083222416786], [127.05677424894051, 36.116917175580866], [127.05860888051278, 36.11773025809215], [127.06006975543774, 36.11733467810765], [127.06152322834114, 36.12333599086643], [127.05961794074611, 36.12292440970923], [127.059539380738, 36.125223554600105], [127.05550385838268, 36.12598651070104], [127.05416493251425, 36.127514010806635], [127.05441750059263, 36.129293602204136], [127.05017256974529, 36.13005948210894], [127.04852147435159, 36.13299828965496], [127.04397678984007, 36.13383298252914], [127.04382500118854, 36.14002907371714], [127.04223663807689, 36.142732554437956], [127.04299101593578, 36.14453747046384], [127.0410318265893, 36.14054133084493], [127.04013587225046, 36.13698453527253], [127.02384173914156, 36.13557155749634], [127.01978296965537, 36.137430682106235], [127.01805673672212, 36.142533836267766], [127.01526810953109, 36.147329335075334], [127.0129766599918, 36.14520606636239], [127.0111785817605, 36.14482265500047], [127.00543498794893, 36.14624567234106], [127.00307186929984, 36.14817299385615], [127.00156385050342, 36.1469224171098], [126.99803202297421, 36.14584600005215], [126.98064932508575, 36.146970907422535], [126.97687427545907, 36.14757341693957], [126.97105702636674, 36.15011576098281], [126.96273697905453, 36.15529682967896], [126.9567377600445, 36.155569577020415], [126.94179820125527, 36.151219944509094], [126.94068494440286, 36.15059789334514], [126.94025427631608, 36.148644900371906], [126.93870167869468, 36.149168301119424], [126.93509855957173, 36.14612350615367], [126.933368661514, 36.143876833074984], [126.93402739460535, 36.143140231565845], [126.93370460122125, 36.14217448551]]]}}]}
